[
{
    "model": "core.riding",
    "pk": 10001,
    "fields": {
        "name_en": "Avalon",
        "name_fr": "Avalon",
        "province": "NL",
        "slug": "avalon",
        "edid": 10001,
        "current": true
    }
},
{
    "model": "core.riding",
    "pk": 10002,
    "fields": {
        "name_en": "Bonavista--Gander--Grand Falls--Windsor",
        "name_fr": "",
        "province": "NL",
        "slug": "bonavista-gander-grand-falls-windsor",
        "edid": 10002,
        "current": false
    }
},
{
    "model": "core.riding",
    "pk": 10003,
    "fields": {
        "name_en": "Humber--St. Barbe--Baie Verte",
        "name_fr": "",
        "province": "NL",
        "slug": "humber-st-barbe-baie-verte",
        "edid": 10003,
        "current": false
    }
},
{
    "model": "core.riding",
    "pk": 10004,
    "fields": {
        "name_en": "Labrador",
        "name_fr": "Labrador",
        "province": "NL",
        "slug": "labrador",
        "edid": 10004,
        "current": true
    }
},
{
    "model": "core.riding",
    "pk": 10005,
    "fields": {
        "name_en": "Random--Burin--St. George's",
        "name_fr": "",
        "province": "NL",
        "slug": "random-burin-st-george-s",
        "edid": 10005,
        "current": false
    }
},
{
    "model": "core.riding",
    "pk": 10006,
    "fields": {
        "name_en": "St. John's East",
        "name_fr": "St. John's-Est",
        "province": "NL",
        "slug": "st-john-s-east",
        "edid": 10006,
        "current": true
    }
},
{
    "model": "core.riding",
    "pk": 10007,
    "fields": {
        "name_en": "St. John's South--Mount Pearl",
        "name_fr": "St. John's-Sud--Mount Pearl",
        "province": "NL",
        "slug": "st-john-s-south-mount-pearl",
        "edid": 10007,
        "current": true
    }
},
{
    "model": "core.riding",
    "pk": 11001,
    "fields": {
        "name_en": "Cardigan",
        "name_fr": "Cardigan",
        "province": "PE",
        "slug": "cardigan",
        "edid": 11001,
        "current": true
    }
},
{
    "model": "core.riding",
    "pk": 11002,
    "fields": {
        "name_en": "Charlottetown",
        "name_fr": "Charlottetown",
        "province": "PE",
        "slug": "charlottetown",
        "edid": 11002,
        "current": true
    }
},
{
    "model": "core.riding",
    "pk": 11003,
    "fields": {
        "name_en": "Egmont",
        "name_fr": "Egmont",
        "province": "PE",
        "slug": "egmont",
        "edid": 11003,
        "current": true
    }
},
{
    "model": "core.riding",
    "pk": 11004,
    "fields": {
        "name_en": "Malpeque",
        "name_fr": "Malpeque",
        "province": "PE",
        "slug": "malpeque",
        "edid": 11004,
        "current": true
    }
},
{
    "model": "core.riding",
    "pk": 12001,
    "fields": {
        "name_en": "Cape Breton--Canso",
        "name_fr": "Cape Breton--Canso",
        "province": "NS",
        "slug": "cape-breton-canso",
        "edid": 12001,
        "current": true
    }
},
{
    "model": "core.riding",
    "pk": 12002,
    "fields": {
        "name_en": "Central Nova",
        "name_fr": "Nova-Centre",
        "province": "NS",
        "slug": "central-nova",
        "edid": 12002,
        "current": true
    }
},
{
    "model": "core.riding",
    "pk": 12003,
    "fields": {
        "name_en": "Dartmouth--Cole Harbour",
        "name_fr": "Dartmouth--Cole Harbour",
        "province": "NS",
        "slug": "dartmouth-cole-harbour",
        "edid": 12004,
        "current": true
    }
},
{
    "model": "core.riding",
    "pk": 12004,
    "fields": {
        "name_en": "Halifax",
        "name_fr": "Halifax",
        "province": "NS",
        "slug": "halifax",
        "edid": 12005,
        "current": true
    }
},
{
    "model": "core.riding",
    "pk": 12005,
    "fields": {
        "name_en": "Halifax West",
        "name_fr": "Halifax-Ouest",
        "province": "NS",
        "slug": "halifax-west",
        "edid": 12006,
        "current": true
    }
},
{
    "model": "core.riding",
    "pk": 12006,
    "fields": {
        "name_en": "Kings--Hants",
        "name_fr": "Kings--Hants",
        "province": "NS",
        "slug": "kings-hants",
        "edid": 12007,
        "current": true
    }
},
{
    "model": "core.riding",
    "pk": 12007,
    "fields": {
        "name_en": "Cumberland--Colchester--Musquodoboit Valley",
        "name_fr": "",
        "province": "NS",
        "slug": "cumberland-colchester-musquodoboit-valley",
        "edid": 12007,
        "current": false
    }
},
{
    "model": "core.riding",
    "pk": 12008,
    "fields": {
        "name_en": "Sackville--Eastern Shore",
        "name_fr": "",
        "province": "NS",
        "slug": "sackville-eastern-shore",
        "edid": 12008,
        "current": false
    }
},
{
    "model": "core.riding",
    "pk": 12009,
    "fields": {
        "name_en": "South Shore--St. Margaret's",
        "name_fr": "",
        "province": "NS",
        "slug": "south-shore-st-margaret-s",
        "edid": 12009,
        "current": false
    }
},
{
    "model": "core.riding",
    "pk": 12010,
    "fields": {
        "name_en": "Sydney--Victoria",
        "name_fr": "Sydney--Victoria",
        "province": "NS",
        "slug": "sydney-victoria",
        "edid": 12010,
        "current": true
    }
},
{
    "model": "core.riding",
    "pk": 12011,
    "fields": {
        "name_en": "West Nova",
        "name_fr": "Nova-Ouest",
        "province": "NS",
        "slug": "west-nova",
        "edid": 12011,
        "current": true
    }
},
{
    "model": "core.riding",
    "pk": 13001,
    "fields": {
        "name_en": "Acadie--Bathurst",
        "name_fr": "Acadie--Bathurst",
        "province": "NB",
        "slug": "acadie-bathurst",
        "edid": 13001,
        "current": true
    }
},
{
    "model": "core.riding",
    "pk": 13002,
    "fields": {
        "name_en": "Beaus\u00e9jour",
        "name_fr": "Beaus\u00e9jour",
        "province": "NB",
        "slug": "beausejour",
        "edid": 13002,
        "current": true
    }
},
{
    "model": "core.riding",
    "pk": 13003,
    "fields": {
        "name_en": "Fredericton",
        "name_fr": "Fredericton",
        "province": "NB",
        "slug": "fredericton",
        "edid": 13003,
        "current": true
    }
},
{
    "model": "core.riding",
    "pk": 13004,
    "fields": {
        "name_en": "Fundy Royal",
        "name_fr": "Fundy Royal",
        "province": "NB",
        "slug": "fundy-royal",
        "edid": 13004,
        "current": true
    }
},
{
    "model": "core.riding",
    "pk": 13005,
    "fields": {
        "name_en": "Madawaska--Restigouche",
        "name_fr": "Madawaska--Restigouche",
        "province": "NB",
        "slug": "madawaska-restigouche",
        "edid": 13005,
        "current": true
    }
},
{
    "model": "core.riding",
    "pk": 13006,
    "fields": {
        "name_en": "Miramichi",
        "name_fr": "",
        "province": "NB",
        "slug": "miramichi",
        "edid": 13006,
        "current": false
    }
},
{
    "model": "core.riding",
    "pk": 13007,
    "fields": {
        "name_en": "Moncton--Riverview--Dieppe",
        "name_fr": "Moncton--Riverview--Dieppe",
        "province": "NB",
        "slug": "moncton-riverview-dieppe",
        "edid": 13007,
        "current": true
    }
},
{
    "model": "core.riding",
    "pk": 13008,
    "fields": {
        "name_en": "New Brunswick Southwest",
        "name_fr": "Nouveau-Brunswick-Sud-Ouest",
        "province": "NB",
        "slug": "new-brunswick-southwest",
        "edid": 13008,
        "current": true
    }
},
{
    "model": "core.riding",
    "pk": 13009,
    "fields": {
        "name_en": "Saint John",
        "name_fr": "",
        "province": "NB",
        "slug": "saint-john",
        "edid": 13009,
        "current": false
    }
},
{
    "model": "core.riding",
    "pk": 13010,
    "fields": {
        "name_en": "Tobique--Mactaquac",
        "name_fr": "Tobique--Mactaquac",
        "province": "NB",
        "slug": "tobique-mactaquac",
        "edid": 13010,
        "current": true
    }
},
{
    "model": "core.riding",
    "pk": 24001,
    "fields": {
        "name_en": "Abitibi--T\u00e9miscamingue",
        "name_fr": "Abitibi--T\u00e9miscamingue",
        "province": "QC",
        "slug": "abitibi-temiscamingue",
        "edid": 24002,
        "current": true
    }
},
{
    "model": "core.riding",
    "pk": 24002,
    "fields": {
        "name_en": "Ahuntsic",
        "name_fr": "",
        "province": "QC",
        "slug": "ahuntsic",
        "edid": 24002,
        "current": false
    }
},
{
    "model": "core.riding",
    "pk": 24003,
    "fields": {
        "name_en": "Alfred-Pellan",
        "name_fr": "Alfred-Pellan",
        "province": "QC",
        "slug": "alfred-pellan",
        "edid": 24004,
        "current": true
    }
},
{
    "model": "core.riding",
    "pk": 24004,
    "fields": {
        "name_en": "Argenteuil--Papineau--Mirabel",
        "name_fr": "",
        "province": "QC",
        "slug": "argenteuil-papineau-mirabel",
        "edid": 24004,
        "current": false
    }
},
{
    "model": "core.riding",
    "pk": 24005,
    "fields": {
        "name_en": "Beauce",
        "name_fr": "Beauce",
        "province": "QC",
        "slug": "beauce",
        "edid": 24007,
        "current": true
    }
},
{
    "model": "core.riding",
    "pk": 24006,
    "fields": {
        "name_en": "Beauharnois--Salaberry",
        "name_fr": "",
        "province": "QC",
        "slug": "beauharnois-salaberry",
        "edid": 24006,
        "current": false
    }
},
{
    "model": "core.riding",
    "pk": 24007,
    "fields": {
        "name_en": "Beauport--Limoilou",
        "name_fr": "Beauport--Limoilou",
        "province": "QC",
        "slug": "beauport-limoilou",
        "edid": 24008,
        "current": true
    }
},
{
    "model": "core.riding",
    "pk": 24008,
    "fields": {
        "name_en": "Berthier--Maskinong\u00e9",
        "name_fr": "Berthier--Maskinong\u00e9",
        "province": "QC",
        "slug": "berthier-maskinonge",
        "edid": 24012,
        "current": true
    }
},
{
    "model": "core.riding",
    "pk": 24009,
    "fields": {
        "name_en": "Bourassa",
        "name_fr": "Bourassa",
        "province": "QC",
        "slug": "bourassa",
        "edid": 24015,
        "current": true
    }
},
{
    "model": "core.riding",
    "pk": 24010,
    "fields": {
        "name_en": "Brome--Missisquoi",
        "name_fr": "Brome--Missisquoi",
        "province": "QC",
        "slug": "brome-missisquoi",
        "edid": 24016,
        "current": true
    }
},
{
    "model": "core.riding",
    "pk": 24011,
    "fields": {
        "name_en": "Brossard--La Prairie",
        "name_fr": "",
        "province": "QC",
        "slug": "brossard-la-prairie",
        "edid": 24011,
        "current": false
    }
},
{
    "model": "core.riding",
    "pk": 24012,
    "fields": {
        "name_en": "Chambly--Borduas",
        "name_fr": "",
        "province": "QC",
        "slug": "chambly-borduas",
        "edid": 24012,
        "current": false
    }
},
{
    "model": "core.riding",
    "pk": 24013,
    "fields": {
        "name_en": "Charlesbourg--Haute-Saint-Charles",
        "name_fr": "Charlesbourg--Haute-Saint-Charles",
        "province": "QC",
        "slug": "charlesbourg-haute-saint-charles",
        "edid": 24019,
        "current": true
    }
},
{
    "model": "core.riding",
    "pk": 24014,
    "fields": {
        "name_en": "Montmorency--Charlevoix--Haute-C\u00f4te-Nord",
        "name_fr": "",
        "province": "QC",
        "slug": "montmorency-charlevoix-haute-cote-nord",
        "edid": 24014,
        "current": false
    }
},
{
    "model": "core.riding",
    "pk": 24015,
    "fields": {
        "name_en": "Ch\u00e2teauguay--Saint-Constant",
        "name_fr": "",
        "province": "QC",
        "slug": "chateauguay-saint-constant",
        "edid": 24015,
        "current": false
    }
},
{
    "model": "core.riding",
    "pk": 24016,
    "fields": {
        "name_en": "Chicoutimi--Le Fjord",
        "name_fr": "Chicoutimi--Le Fjord",
        "province": "QC",
        "slug": "chicoutimi-le-fjord",
        "edid": 24022,
        "current": true
    }
},
{
    "model": "core.riding",
    "pk": 24017,
    "fields": {
        "name_en": "Compton--Stanstead",
        "name_fr": "Compton--Stanstead",
        "province": "QC",
        "slug": "compton-stanstead",
        "edid": 24023,
        "current": true
    }
},
{
    "model": "core.riding",
    "pk": 24018,
    "fields": {
        "name_en": "Drummond",
        "name_fr": "Drummond",
        "province": "QC",
        "slug": "drummond",
        "edid": 24025,
        "current": true
    }
},
{
    "model": "core.riding",
    "pk": 24019,
    "fields": {
        "name_en": "Gasp\u00e9sie--\u00celes-de-la-Madeleine",
        "name_fr": "",
        "province": "QC",
        "slug": "gaspesie-iles-de-la-madeleine",
        "edid": 24019,
        "current": false
    }
},
{
    "model": "core.riding",
    "pk": 24020,
    "fields": {
        "name_en": "Gatineau",
        "name_fr": "Gatineau",
        "province": "QC",
        "slug": "gatineau",
        "edid": 24027,
        "current": true
    }
},
{
    "model": "core.riding",
    "pk": 24021,
    "fields": {
        "name_en": "Hochelaga",
        "name_fr": "Hochelaga",
        "province": "QC",
        "slug": "hochelaga",
        "edid": 24028,
        "current": true
    }
},
{
    "model": "core.riding",
    "pk": 24022,
    "fields": {
        "name_en": "Honor\u00e9-Mercier",
        "name_fr": "Honor\u00e9-Mercier",
        "province": "QC",
        "slug": "honore-mercier",
        "edid": 24029,
        "current": true
    }
},
{
    "model": "core.riding",
    "pk": 24023,
    "fields": {
        "name_en": "Hull--Aylmer",
        "name_fr": "Hull--Aylmer",
        "province": "QC",
        "slug": "hull-aylmer",
        "edid": 24030,
        "current": true
    }
},
{
    "model": "core.riding",
    "pk": 24024,
    "fields": {
        "name_en": "Jeanne-Le Ber",
        "name_fr": "",
        "province": "QC",
        "slug": "jeanne-le-ber",
        "edid": 24024,
        "current": false
    }
},
{
    "model": "core.riding",
    "pk": 24025,
    "fields": {
        "name_en": "Joliette",
        "name_fr": "Joliette",
        "province": "QC",
        "slug": "joliette",
        "edid": 24031,
        "current": true
    }
},
{
    "model": "core.riding",
    "pk": 24026,
    "fields": {
        "name_en": "Jonqui\u00e8re--Alma",
        "name_fr": "",
        "province": "QC",
        "slug": "jonquiere-alma",
        "edid": 24026,
        "current": false
    }
},
{
    "model": "core.riding",
    "pk": 24027,
    "fields": {
        "name_en": "Lac-Saint-Louis",
        "name_fr": "Lac-Saint-Louis",
        "province": "QC",
        "slug": "lac-saint-louis",
        "edid": 24036,
        "current": true
    }
},
{
    "model": "core.riding",
    "pk": 24028,
    "fields": {
        "name_en": "La Pointe-de-l'\u00cele",
        "name_fr": "La Pointe-de-l'\u00cele",
        "province": "QC",
        "slug": "la-pointe-de-l-ile",
        "edid": 24033,
        "current": true
    }
},
{
    "model": "core.riding",
    "pk": 24029,
    "fields": {
        "name_en": "LaSalle--\u00c9mard",
        "name_fr": "",
        "province": "QC",
        "slug": "lasalle-emard",
        "edid": 24029,
        "current": false
    }
},
{
    "model": "core.riding",
    "pk": 24030,
    "fields": {
        "name_en": "Laurentides--Labelle",
        "name_fr": "Laurentides--Labelle",
        "province": "QC",
        "slug": "laurentides-labelle",
        "edid": 24038,
        "current": true
    }
},
{
    "model": "core.riding",
    "pk": 24031,
    "fields": {
        "name_en": "Laurier--Sainte-Marie",
        "name_fr": "Laurier--Sainte-Marie",
        "province": "QC",
        "slug": "laurier-sainte-marie",
        "edid": 24039,
        "current": true
    }
},
{
    "model": "core.riding",
    "pk": 24032,
    "fields": {
        "name_en": "Laval",
        "name_fr": "",
        "province": "QC",
        "slug": "laval",
        "edid": 24032,
        "current": false
    }
},
{
    "model": "core.riding",
    "pk": 24033,
    "fields": {
        "name_en": "Laval--Les \u00celes",
        "name_fr": "Laval--Les \u00celes",
        "province": "QC",
        "slug": "laval-les-iles",
        "edid": 24040,
        "current": true
    }
},
{
    "model": "core.riding",
    "pk": 24034,
    "fields": {
        "name_en": "L\u00e9vis--Bellechasse",
        "name_fr": "",
        "province": "QC",
        "slug": "levis-bellechasse",
        "edid": 24034,
        "current": false
    }
},
{
    "model": "core.riding",
    "pk": 24035,
    "fields": {
        "name_en": "Longueuil--Pierre-Boucher",
        "name_fr": "",
        "province": "QC",
        "slug": "longueuil-pierre-boucher",
        "edid": 24035,
        "current": false
    }
},
{
    "model": "core.riding",
    "pk": 24036,
    "fields": {
        "name_en": "Lotbini\u00e8re--Chutes-de-la-Chaudi\u00e8re",
        "name_fr": "",
        "province": "QC",
        "slug": "lotbiniere-chutes-de-la-chaudiere",
        "edid": 24036,
        "current": false
    }
},
{
    "model": "core.riding",
    "pk": 24037,
    "fields": {
        "name_en": "Louis-H\u00e9bert",
        "name_fr": "Louis-H\u00e9bert",
        "province": "QC",
        "slug": "louis-hebert",
        "edid": 24044,
        "current": true
    }
},
{
    "model": "core.riding",
    "pk": 24038,
    "fields": {
        "name_en": "Louis-Saint-Laurent",
        "name_fr": "Louis-Saint-Laurent",
        "province": "QC",
        "slug": "louis-saint-laurent",
        "edid": 24045,
        "current": true
    }
},
{
    "model": "core.riding",
    "pk": 24039,
    "fields": {
        "name_en": "Manicouagan",
        "name_fr": "Manicouagan",
        "province": "QC",
        "slug": "manicouagan",
        "edid": 24046,
        "current": true
    }
},
{
    "model": "core.riding",
    "pk": 24040,
    "fields": {
        "name_en": "Marc-Aur\u00e8le-Fortin",
        "name_fr": "Marc-Aur\u00e8le-Fortin",
        "province": "QC",
        "slug": "marc-aurele-fortin",
        "edid": 24065,
        "current": true
    }
},
{
    "model": "core.riding",
    "pk": 24041,
    "fields": {
        "name_en": "Haute-Gasp\u00e9sie--La Mitis--Matane--Matap\u00e9dia",
        "name_fr": "",
        "province": "QC",
        "slug": "haute-gaspesie-la-mitis-matane-matapedia",
        "edid": 24041,
        "current": false
    }
},
{
    "model": "core.riding",
    "pk": 24042,
    "fields": {
        "name_en": "M\u00e9gantic--L'\u00c9rable",
        "name_fr": "M\u00e9gantic--L'\u00c9rable",
        "province": "QC",
        "slug": "megantic-l-erable",
        "edid": 24047,
        "current": true
    }
},
{
    "model": "core.riding",
    "pk": 24043,
    "fields": {
        "name_en": "Montcalm",
        "name_fr": "Montcalm",
        "province": "QC",
        "slug": "montcalm",
        "edid": 24050,
        "current": true
    }
},
{
    "model": "core.riding",
    "pk": 24044,
    "fields": {
        "name_en": "Mount Royal",
        "name_fr": "Mont-Royal",
        "province": "QC",
        "slug": "mount-royal",
        "edid": 24052,
        "current": true
    }
},
{
    "model": "core.riding",
    "pk": 24045,
    "fields": {
        "name_en": "Notre-Dame-de-Gr\u00e2ce--Lachine",
        "name_fr": "",
        "province": "QC",
        "slug": "notre-dame-de-grace-lachine",
        "edid": 24045,
        "current": false
    }
},
{
    "model": "core.riding",
    "pk": 24046,
    "fields": {
        "name_en": "Abitibi--Baie-James--Nunavik--Eeyou",
        "name_fr": "Abitibi--Baie-James--Nunavik--Eeyou",
        "province": "QC",
        "slug": "abitibi-baie-james-nunavik-eeyou",
        "edid": 24001,
        "current": true
    }
},
{
    "model": "core.riding",
    "pk": 24047,
    "fields": {
        "name_en": "Outremont",
        "name_fr": "Outremont",
        "province": "QC",
        "slug": "outremont",
        "edid": 24054,
        "current": true
    }
},
{
    "model": "core.riding",
    "pk": 24048,
    "fields": {
        "name_en": "Papineau",
        "name_fr": "Papineau",
        "province": "QC",
        "slug": "papineau",
        "edid": 24055,
        "current": true
    }
},
{
    "model": "core.riding",
    "pk": 24049,
    "fields": {
        "name_en": "Pierrefonds--Dollard",
        "name_fr": "Pierrefonds--Dollard",
        "province": "QC",
        "slug": "pierrefonds-dollard",
        "edid": 24056,
        "current": true
    }
},
{
    "model": "core.riding",
    "pk": 24050,
    "fields": {
        "name_en": "Pontiac",
        "name_fr": "Pontiac",
        "province": "QC",
        "slug": "pontiac",
        "edid": 24057,
        "current": true
    }
},
{
    "model": "core.riding",
    "pk": 24051,
    "fields": {
        "name_en": "Portneuf--Jacques-Cartier",
        "name_fr": "Portneuf--Jacques-Cartier",
        "province": "QC",
        "slug": "portneuf-jacques-cartier",
        "edid": 24058,
        "current": true
    }
},
{
    "model": "core.riding",
    "pk": 24052,
    "fields": {
        "name_en": "Qu\u00e9bec",
        "name_fr": "Qu\u00e9bec",
        "province": "QC",
        "slug": "quebec",
        "edid": 24059,
        "current": true
    }
},
{
    "model": "core.riding",
    "pk": 24053,
    "fields": {
        "name_en": "Repentigny",
        "name_fr": "Repentigny",
        "province": "QC",
        "slug": "repentigny",
        "edid": 24060,
        "current": true
    }
},
{
    "model": "core.riding",
    "pk": 24054,
    "fields": {
        "name_en": "Bas-Richelieu--Nicolet--B\u00e9cancour",
        "name_fr": "",
        "province": "QC",
        "slug": "bas-richelieu-nicolet-becancour",
        "edid": 24054,
        "current": false
    }
},
{
    "model": "core.riding",
    "pk": 24055,
    "fields": {
        "name_en": "Richmond--Arthabaska",
        "name_fr": "Richmond--Arthabaska",
        "province": "QC",
        "slug": "richmond-arthabaska",
        "edid": 24061,
        "current": true
    }
},
{
    "model": "core.riding",
    "pk": 24056,
    "fields": {
        "name_en": "Rimouski-Neigette--T\u00e9miscouata--Les Basques",
        "name_fr": "Rimouski-Neigette--T\u00e9miscouata--Les Basques",
        "province": "QC",
        "slug": "rimouski-neigette-temiscouata-les-basques",
        "edid": 24018,
        "current": true
    }
},
{
    "model": "core.riding",
    "pk": 24057,
    "fields": {
        "name_en": "Rivi\u00e8re-des-Mille-\u00celes",
        "name_fr": "Rivi\u00e8re-des-Mille-\u00celes",
        "province": "QC",
        "slug": "riviere-des-mille-iles",
        "edid": 24062,
        "current": true
    }
},
{
    "model": "core.riding",
    "pk": 24058,
    "fields": {
        "name_en": "Montmagny--L'Islet--Kamouraska--Rivi\u00e8re-du-Loup",
        "name_fr": "Montmagny--L'Islet--Kamouraska--Rivi\u00e8re-du-Loup",
        "province": "QC",
        "slug": "montmagny-l-islet-kamouraska-riviere-du-loup",
        "edid": 24051,
        "current": true
    }
},
{
    "model": "core.riding",
    "pk": 24059,
    "fields": {
        "name_en": "Rivi\u00e8re-du-Nord",
        "name_fr": "Rivi\u00e8re-du-Nord",
        "province": "QC",
        "slug": "riviere-du-nord",
        "edid": 24063,
        "current": true
    }
},
{
    "model": "core.riding",
    "pk": 24060,
    "fields": {
        "name_en": "Roberval--Lac-Saint-Jean",
        "name_fr": "",
        "province": "QC",
        "slug": "roberval-lac-saint-jean",
        "edid": 24060,
        "current": false
    }
},
{
    "model": "core.riding",
    "pk": 24061,
    "fields": {
        "name_en": "Rosemont--La Petite-Patrie",
        "name_fr": "Rosemont--La Petite-Patrie",
        "province": "QC",
        "slug": "rosemont-la-petite-patrie",
        "edid": 24064,
        "current": true
    }
},
{
    "model": "core.riding",
    "pk": 24062,
    "fields": {
        "name_en": "Saint-Bruno--Saint-Hubert",
        "name_fr": "",
        "province": "QC",
        "slug": "saint-bruno-saint-hubert",
        "edid": 24062,
        "current": false
    }
},
{
    "model": "core.riding",
    "pk": 24063,
    "fields": {
        "name_en": "Saint-Hyacinthe--Bagot",
        "name_fr": "Saint-Hyacinthe--Bagot",
        "province": "QC",
        "slug": "saint-hyacinthe-bagot",
        "edid": 24066,
        "current": true
    }
},
{
    "model": "core.riding",
    "pk": 24064,
    "fields": {
        "name_en": "Saint-Jean",
        "name_fr": "Saint-Jean",
        "province": "QC",
        "slug": "saint-jean",
        "edid": 24067,
        "current": true
    }
},
{
    "model": "core.riding",
    "pk": 24065,
    "fields": {
        "name_en": "Saint-Lambert",
        "name_fr": "",
        "province": "QC",
        "slug": "saint-lambert",
        "edid": 24065,
        "current": false
    }
},
{
    "model": "core.riding",
    "pk": 24066,
    "fields": {
        "name_en": "Saint-Laurent--Cartierville",
        "name_fr": "",
        "province": "QC",
        "slug": "saint-laurent-cartierville",
        "edid": 24066,
        "current": false
    }
},
{
    "model": "core.riding",
    "pk": 24067,
    "fields": {
        "name_en": "Saint-L\u00e9onard--Saint-Michel",
        "name_fr": "Saint-L\u00e9onard--Saint-Michel",
        "province": "QC",
        "slug": "saint-leonard-saint-michel",
        "edid": 24069,
        "current": true
    }
},
{
    "model": "core.riding",
    "pk": 24068,
    "fields": {
        "name_en": "Saint-Maurice--Champlain",
        "name_fr": "Saint-Maurice--Champlain",
        "province": "QC",
        "slug": "saint-maurice-champlain",
        "edid": 24070,
        "current": true
    }
},
{
    "model": "core.riding",
    "pk": 24069,
    "fields": {
        "name_en": "Shefford",
        "name_fr": "Shefford",
        "province": "QC",
        "slug": "shefford",
        "edid": 24072,
        "current": true
    }
},
{
    "model": "core.riding",
    "pk": 24070,
    "fields": {
        "name_en": "Sherbrooke",
        "name_fr": "Sherbrooke",
        "province": "QC",
        "slug": "sherbrooke",
        "edid": 24073,
        "current": true
    }
},
{
    "model": "core.riding",
    "pk": 24071,
    "fields": {
        "name_en": "Terrebonne--Blainville",
        "name_fr": "",
        "province": "QC",
        "slug": "terrebonne-blainville",
        "edid": 24071,
        "current": false
    }
},
{
    "model": "core.riding",
    "pk": 24072,
    "fields": {
        "name_en": "Trois-Rivi\u00e8res",
        "name_fr": "Trois-Rivi\u00e8res",
        "province": "QC",
        "slug": "trois-rivieres",
        "edid": 24076,
        "current": true
    }
},
{
    "model": "core.riding",
    "pk": 24073,
    "fields": {
        "name_en": "Vaudreuil--Soulanges",
        "name_fr": "Vaudreuil--Soulanges",
        "province": "QC",
        "slug": "vaudreuil-soulanges",
        "edid": 24074,
        "current": true
    }
},
{
    "model": "core.riding",
    "pk": 24074,
    "fields": {
        "name_en": "Verch\u00e8res--Les Patriotes",
        "name_fr": "",
        "province": "QC",
        "slug": "vercheres-les-patriotes",
        "edid": 24074,
        "current": false
    }
},
{
    "model": "core.riding",
    "pk": 24075,
    "fields": {
        "name_en": "Westmount--Ville-Marie",
        "name_fr": "",
        "province": "QC",
        "slug": "westmount-ville-marie",
        "edid": 24075,
        "current": false
    }
},
{
    "model": "core.riding",
    "pk": 35001,
    "fields": {
        "name_en": "Ajax--Pickering",
        "name_fr": "",
        "province": "ON",
        "slug": "ajax-pickering",
        "edid": 35001,
        "current": false
    }
},
{
    "model": "core.riding",
    "pk": 35002,
    "fields": {
        "name_en": "Algoma--Manitoulin--Kapuskasing",
        "name_fr": "Algoma--Manitoulin--Kapuskasing",
        "province": "ON",
        "slug": "algoma-manitoulin-kapuskasing",
        "edid": 35002,
        "current": true
    }
},
{
    "model": "core.riding",
    "pk": 35003,
    "fields": {
        "name_en": "Ancaster--Dundas--Flamborough--Westdale",
        "name_fr": "",
        "province": "ON",
        "slug": "ancaster-dundas-flamborough-westdale",
        "edid": 35003,
        "current": false
    }
},
{
    "model": "core.riding",
    "pk": 35004,
    "fields": {
        "name_en": "Barrie",
        "name_fr": "",
        "province": "ON",
        "slug": "barrie",
        "edid": 35004,
        "current": false
    }
},
{
    "model": "core.riding",
    "pk": 35005,
    "fields": {
        "name_en": "Beaches--East York",
        "name_fr": "Beaches--East York",
        "province": "ON",
        "slug": "beaches-east-york",
        "edid": 35007,
        "current": true
    }
},
{
    "model": "core.riding",
    "pk": 35006,
    "fields": {
        "name_en": "Bramalea--Gore--Malton",
        "name_fr": "",
        "province": "ON",
        "slug": "bramalea-gore-malton",
        "edid": 35006,
        "current": false
    }
},
{
    "model": "core.riding",
    "pk": 35007,
    "fields": {
        "name_en": "Brampton--Springdale",
        "name_fr": "",
        "province": "ON",
        "slug": "brampton-springdale",
        "edid": 35007,
        "current": false
    }
},
{
    "model": "core.riding",
    "pk": 35008,
    "fields": {
        "name_en": "Brampton West",
        "name_fr": "Brampton-Ouest",
        "province": "ON",
        "slug": "brampton-west",
        "edid": 35012,
        "current": true
    }
},
{
    "model": "core.riding",
    "pk": 35009,
    "fields": {
        "name_en": "Brant",
        "name_fr": "",
        "province": "ON",
        "slug": "brant",
        "edid": 35009,
        "current": false
    }
},
{
    "model": "core.riding",
    "pk": 35010,
    "fields": {
        "name_en": "Burlington",
        "name_fr": "Burlington",
        "province": "ON",
        "slug": "burlington",
        "edid": 35015,
        "current": true
    }
},
{
    "model": "core.riding",
    "pk": 35011,
    "fields": {
        "name_en": "Cambridge",
        "name_fr": "Cambridge",
        "province": "ON",
        "slug": "cambridge",
        "edid": 35016,
        "current": true
    }
},
{
    "model": "core.riding",
    "pk": 35012,
    "fields": {
        "name_en": "Carleton--Mississippi Mills",
        "name_fr": "",
        "province": "ON",
        "slug": "carleton-mississippi-mills",
        "edid": 35012,
        "current": false
    }
},
{
    "model": "core.riding",
    "pk": 35013,
    "fields": {
        "name_en": "Chatham-Kent--Essex",
        "name_fr": "",
        "province": "ON",
        "slug": "chatham-kent-essex",
        "edid": 35013,
        "current": false
    }
},
{
    "model": "core.riding",
    "pk": 35014,
    "fields": {
        "name_en": "Durham",
        "name_fr": "Durham",
        "province": "ON",
        "slug": "durham",
        "edid": 35023,
        "current": true
    }
},
{
    "model": "core.riding",
    "pk": 35015,
    "fields": {
        "name_en": "Davenport",
        "name_fr": "Davenport",
        "province": "ON",
        "slug": "davenport",
        "edid": 35018,
        "current": true
    }
},
{
    "model": "core.riding",
    "pk": 35016,
    "fields": {
        "name_en": "Don Valley East",
        "name_fr": "Don Valley-Est",
        "province": "ON",
        "slug": "don-valley-east",
        "edid": 35019,
        "current": true
    }
},
{
    "model": "core.riding",
    "pk": 35017,
    "fields": {
        "name_en": "Don Valley West",
        "name_fr": "Don Valley-Ouest",
        "province": "ON",
        "slug": "don-valley-west",
        "edid": 35021,
        "current": true
    }
},
{
    "model": "core.riding",
    "pk": 35018,
    "fields": {
        "name_en": "Dufferin--Caledon",
        "name_fr": "Dufferin--Caledon",
        "province": "ON",
        "slug": "dufferin-caledon",
        "edid": 35022,
        "current": true
    }
},
{
    "model": "core.riding",
    "pk": 35019,
    "fields": {
        "name_en": "Eglinton--Lawrence",
        "name_fr": "Eglinton--Lawrence",
        "province": "ON",
        "slug": "eglinton-lawrence",
        "edid": 35024,
        "current": true
    }
},
{
    "model": "core.riding",
    "pk": 35020,
    "fields": {
        "name_en": "Elgin--Middlesex--London",
        "name_fr": "Elgin--Middlesex--London",
        "province": "ON",
        "slug": "elgin-middlesex-london",
        "edid": 35025,
        "current": true
    }
},
{
    "model": "core.riding",
    "pk": 35021,
    "fields": {
        "name_en": "Essex",
        "name_fr": "Essex",
        "province": "ON",
        "slug": "essex",
        "edid": 35026,
        "current": true
    }
},
{
    "model": "core.riding",
    "pk": 35022,
    "fields": {
        "name_en": "Etobicoke Centre",
        "name_fr": "Etobicoke-Centre",
        "province": "ON",
        "slug": "etobicoke-centre",
        "edid": 35027,
        "current": true
    }
},
{
    "model": "core.riding",
    "pk": 35023,
    "fields": {
        "name_en": "Etobicoke--Lakeshore",
        "name_fr": "Etobicoke--Lakeshore",
        "province": "ON",
        "slug": "etobicoke-lakeshore",
        "edid": 35028,
        "current": true
    }
},
{
    "model": "core.riding",
    "pk": 35024,
    "fields": {
        "name_en": "Etobicoke North",
        "name_fr": "Etobicoke-Nord",
        "province": "ON",
        "slug": "etobicoke-north",
        "edid": 35029,
        "current": true
    }
},
{
    "model": "core.riding",
    "pk": 35025,
    "fields": {
        "name_en": "Glengarry--Prescott--Russell",
        "name_fr": "Glengarry--Prescott--Russell",
        "province": "ON",
        "slug": "glengarry-prescott-russell",
        "edid": 35031,
        "current": true
    }
},
{
    "model": "core.riding",
    "pk": 35026,
    "fields": {
        "name_en": "Bruce--Grey--Owen Sound",
        "name_fr": "Bruce--Grey--Owen Sound",
        "province": "ON",
        "slug": "bruce-grey-owen-sound",
        "edid": 35014,
        "current": true
    }
},
{
    "model": "core.riding",
    "pk": 35027,
    "fields": {
        "name_en": "Guelph",
        "name_fr": "Guelph",
        "province": "ON",
        "slug": "guelph",
        "edid": 35032,
        "current": true
    }
},
{
    "model": "core.riding",
    "pk": 35028,
    "fields": {
        "name_en": "Haldimand--Norfolk",
        "name_fr": "Haldimand--Norfolk",
        "province": "ON",
        "slug": "haldimand-norfolk",
        "edid": 35033,
        "current": true
    }
},
{
    "model": "core.riding",
    "pk": 35029,
    "fields": {
        "name_en": "Haliburton--Kawartha Lakes--Brock",
        "name_fr": "Haliburton--Kawartha Lakes--Brock",
        "province": "ON",
        "slug": "haliburton-kawartha-lakes-brock",
        "edid": 35034,
        "current": true
    }
},
{
    "model": "core.riding",
    "pk": 35030,
    "fields": {
        "name_en": "Halton",
        "name_fr": "",
        "province": "ON",
        "slug": "halton",
        "edid": 35030,
        "current": false
    }
},
{
    "model": "core.riding",
    "pk": 35031,
    "fields": {
        "name_en": "Hamilton Centre",
        "name_fr": "Hamilton-Centre",
        "province": "ON",
        "slug": "hamilton-centre",
        "edid": 35035,
        "current": true
    }
},
{
    "model": "core.riding",
    "pk": 35032,
    "fields": {
        "name_en": "Hamilton East--Stoney Creek",
        "name_fr": "Hamilton-Est--Stoney Creek",
        "province": "ON",
        "slug": "hamilton-east-stoney-creek",
        "edid": 35036,
        "current": true
    }
},
{
    "model": "core.riding",
    "pk": 35033,
    "fields": {
        "name_en": "Hamilton Mountain",
        "name_fr": "Hamilton Mountain",
        "province": "ON",
        "slug": "hamilton-mountain",
        "edid": 35037,
        "current": true
    }
},
{
    "model": "core.riding",
    "pk": 35034,
    "fields": {
        "name_en": "Huron--Bruce",
        "name_fr": "Huron--Bruce",
        "province": "ON",
        "slug": "huron-bruce",
        "edid": 35040,
        "current": true
    }
},
{
    "model": "core.riding",
    "pk": 35035,
    "fields": {
        "name_en": "Kenora",
        "name_fr": "Kenora",
        "province": "ON",
        "slug": "kenora",
        "edid": 35042,
        "current": true
    }
},
{
    "model": "core.riding",
    "pk": 35036,
    "fields": {
        "name_en": "Kingston and the Islands",
        "name_fr": "Kingston et les \u00celes",
        "province": "ON",
        "slug": "kingston-and-the-islands",
        "edid": 35044,
        "current": true
    }
},
{
    "model": "core.riding",
    "pk": 35037,
    "fields": {
        "name_en": "Kitchener Centre",
        "name_fr": "Kitchener-Centre",
        "province": "ON",
        "slug": "kitchener-centre",
        "edid": 35045,
        "current": true
    }
},
{
    "model": "core.riding",
    "pk": 35038,
    "fields": {
        "name_en": "Kitchener--Conestoga",
        "name_fr": "Kitchener--Conestoga",
        "province": "ON",
        "slug": "kitchener-conestoga",
        "edid": 35046,
        "current": true
    }
},
{
    "model": "core.riding",
    "pk": 35039,
    "fields": {
        "name_en": "Kitchener--Waterloo",
        "name_fr": "",
        "province": "ON",
        "slug": "kitchener-waterloo",
        "edid": 35039,
        "current": false
    }
},
{
    "model": "core.riding",
    "pk": 35040,
    "fields": {
        "name_en": "Lanark--Frontenac--Lennox and Addington",
        "name_fr": "",
        "province": "ON",
        "slug": "lanark-frontenac-lennox-and-addington",
        "edid": 35040,
        "current": false
    }
},
{
    "model": "core.riding",
    "pk": 35041,
    "fields": {
        "name_en": "Leeds--Grenville",
        "name_fr": "",
        "province": "ON",
        "slug": "leeds-grenville",
        "edid": 35041,
        "current": false
    }
},
{
    "model": "core.riding",
    "pk": 35042,
    "fields": {
        "name_en": "London--Fanshawe",
        "name_fr": "London--Fanshawe",
        "province": "ON",
        "slug": "london-fanshawe",
        "edid": 35051,
        "current": true
    }
},
{
    "model": "core.riding",
    "pk": 35043,
    "fields": {
        "name_en": "London North Centre",
        "name_fr": "London-Centre-Nord",
        "province": "ON",
        "slug": "london-north-centre",
        "edid": 35052,
        "current": true
    }
},
{
    "model": "core.riding",
    "pk": 35044,
    "fields": {
        "name_en": "London West",
        "name_fr": "London-Ouest",
        "province": "ON",
        "slug": "london-west",
        "edid": 35053,
        "current": true
    }
},
{
    "model": "core.riding",
    "pk": 35045,
    "fields": {
        "name_en": "Markham--Unionville",
        "name_fr": "Markham--Unionville",
        "province": "ON",
        "slug": "markham-unionville",
        "edid": 35056,
        "current": true
    }
},
{
    "model": "core.riding",
    "pk": 35046,
    "fields": {
        "name_en": "Lambton--Kent--Middlesex",
        "name_fr": "Lambton--Kent--Middlesex",
        "province": "ON",
        "slug": "lambton-kent-middlesex",
        "edid": 35048,
        "current": true
    }
},
{
    "model": "core.riding",
    "pk": 35047,
    "fields": {
        "name_en": "Mississauga--Brampton South",
        "name_fr": "",
        "province": "ON",
        "slug": "mississauga-brampton-south",
        "edid": 35047,
        "current": false
    }
},
{
    "model": "core.riding",
    "pk": 35048,
    "fields": {
        "name_en": "Mississauga East--Cooksville",
        "name_fr": "Mississauga-Est--Cooksville",
        "province": "ON",
        "slug": "mississauga-east-cooksville",
        "edid": 35059,
        "current": true
    }
},
{
    "model": "core.riding",
    "pk": 35049,
    "fields": {
        "name_en": "Mississauga--Erindale",
        "name_fr": "",
        "province": "ON",
        "slug": "mississauga-erindale",
        "edid": 35049,
        "current": false
    }
},
{
    "model": "core.riding",
    "pk": 35050,
    "fields": {
        "name_en": "Mississauga South",
        "name_fr": "",
        "province": "ON",
        "slug": "mississauga-south",
        "edid": 35050,
        "current": false
    }
},
{
    "model": "core.riding",
    "pk": 35051,
    "fields": {
        "name_en": "Mississauga--Streetsville",
        "name_fr": "Mississauga--Streetsville",
        "province": "ON",
        "slug": "mississauga-streetsville",
        "edid": 35063,
        "current": true
    }
},
{
    "model": "core.riding",
    "pk": 35052,
    "fields": {
        "name_en": "Nepean--Carleton",
        "name_fr": "",
        "province": "ON",
        "slug": "nepean-carleton",
        "edid": 35052,
        "current": false
    }
},
{
    "model": "core.riding",
    "pk": 35053,
    "fields": {
        "name_en": "Newmarket--Aurora",
        "name_fr": "Newmarket--Aurora",
        "province": "ON",
        "slug": "newmarket-aurora",
        "edid": 35065,
        "current": true
    }
},
{
    "model": "core.riding",
    "pk": 35054,
    "fields": {
        "name_en": "Niagara Falls",
        "name_fr": "Niagara Falls",
        "province": "ON",
        "slug": "niagara-falls",
        "edid": 35067,
        "current": true
    }
},
{
    "model": "core.riding",
    "pk": 35055,
    "fields": {
        "name_en": "Niagara West--Glanbrook",
        "name_fr": "",
        "province": "ON",
        "slug": "niagara-west-glanbrook",
        "edid": 35055,
        "current": false
    }
},
{
    "model": "core.riding",
    "pk": 35056,
    "fields": {
        "name_en": "Nickel Belt",
        "name_fr": "Nickel Belt",
        "province": "ON",
        "slug": "nickel-belt",
        "edid": 35069,
        "current": true
    }
},
{
    "model": "core.riding",
    "pk": 35057,
    "fields": {
        "name_en": "Nipissing--Timiskaming",
        "name_fr": "Nipissing--Timiskaming",
        "province": "ON",
        "slug": "nipissing-timiskaming",
        "edid": 35070,
        "current": true
    }
},
{
    "model": "core.riding",
    "pk": 35058,
    "fields": {
        "name_en": "Northumberland--Quinte West",
        "name_fr": "",
        "province": "ON",
        "slug": "northumberland-quinte-west",
        "edid": 35058,
        "current": false
    }
},
{
    "model": "core.riding",
    "pk": 35059,
    "fields": {
        "name_en": "Oak Ridges--Markham",
        "name_fr": "",
        "province": "ON",
        "slug": "oak-ridges-markham",
        "edid": 35059,
        "current": false
    }
},
{
    "model": "core.riding",
    "pk": 35060,
    "fields": {
        "name_en": "Oakville",
        "name_fr": "Oakville",
        "province": "ON",
        "slug": "oakville",
        "edid": 35072,
        "current": true
    }
},
{
    "model": "core.riding",
    "pk": 35061,
    "fields": {
        "name_en": "Oshawa",
        "name_fr": "Oshawa",
        "province": "ON",
        "slug": "oshawa",
        "edid": 35074,
        "current": true
    }
},
{
    "model": "core.riding",
    "pk": 35062,
    "fields": {
        "name_en": "Ottawa Centre",
        "name_fr": "Ottawa-Centre",
        "province": "ON",
        "slug": "ottawa-centre",
        "edid": 35075,
        "current": true
    }
},
{
    "model": "core.riding",
    "pk": 35063,
    "fields": {
        "name_en": "Ottawa--Orl\u00e9ans",
        "name_fr": "",
        "province": "ON",
        "slug": "ottawa-orleans",
        "edid": 35063,
        "current": false
    }
},
{
    "model": "core.riding",
    "pk": 35064,
    "fields": {
        "name_en": "Ottawa South",
        "name_fr": "Ottawa-Sud",
        "province": "ON",
        "slug": "ottawa-south",
        "edid": 35077,
        "current": true
    }
},
{
    "model": "core.riding",
    "pk": 35065,
    "fields": {
        "name_en": "Ottawa--Vanier",
        "name_fr": "Ottawa--Vanier",
        "province": "ON",
        "slug": "ottawa-vanier",
        "edid": 35078,
        "current": true
    }
},
{
    "model": "core.riding",
    "pk": 35066,
    "fields": {
        "name_en": "Ottawa West--Nepean",
        "name_fr": "Ottawa-Ouest--Nepean",
        "province": "ON",
        "slug": "ottawa-west-nepean",
        "edid": 35079,
        "current": true
    }
},
{
    "model": "core.riding",
    "pk": 35067,
    "fields": {
        "name_en": "Oxford",
        "name_fr": "Oxford",
        "province": "ON",
        "slug": "oxford",
        "edid": 35080,
        "current": true
    }
},
{
    "model": "core.riding",
    "pk": 35068,
    "fields": {
        "name_en": "Parkdale--High Park",
        "name_fr": "Parkdale--High Park",
        "province": "ON",
        "slug": "parkdale-high-park",
        "edid": 35081,
        "current": true
    }
},
{
    "model": "core.riding",
    "pk": 35069,
    "fields": {
        "name_en": "Parry Sound--Muskoka",
        "name_fr": "Parry Sound--Muskoka",
        "province": "ON",
        "slug": "parry-sound-muskoka",
        "edid": 35082,
        "current": true
    }
},
{
    "model": "core.riding",
    "pk": 35070,
    "fields": {
        "name_en": "Perth--Wellington",
        "name_fr": "Perth--Wellington",
        "province": "ON",
        "slug": "perth-wellington",
        "edid": 35083,
        "current": true
    }
},
{
    "model": "core.riding",
    "pk": 35071,
    "fields": {
        "name_en": "Peterborough",
        "name_fr": "",
        "province": "ON",
        "slug": "peterborough",
        "edid": 35071,
        "current": false
    }
},
{
    "model": "core.riding",
    "pk": 35072,
    "fields": {
        "name_en": "Pickering--Scarborough East",
        "name_fr": "",
        "province": "ON",
        "slug": "pickering-scarborough-east",
        "edid": 35072,
        "current": false
    }
},
{
    "model": "core.riding",
    "pk": 35073,
    "fields": {
        "name_en": "Prince Edward--Hastings",
        "name_fr": "",
        "province": "ON",
        "slug": "prince-edward-hastings",
        "edid": 35073,
        "current": false
    }
},
{
    "model": "core.riding",
    "pk": 35074,
    "fields": {
        "name_en": "Renfrew--Nipissing--Pembroke",
        "name_fr": "Renfrew--Nipissing--Pembroke",
        "province": "ON",
        "slug": "renfrew-nipissing-pembroke",
        "edid": 35086,
        "current": true
    }
},
{
    "model": "core.riding",
    "pk": 35075,
    "fields": {
        "name_en": "Richmond Hill",
        "name_fr": "Richmond Hill",
        "province": "ON",
        "slug": "richmond-hill",
        "edid": 35087,
        "current": true
    }
},
{
    "model": "core.riding",
    "pk": 35076,
    "fields": {
        "name_en": "St. Catharines",
        "name_fr": "St. Catharines",
        "province": "ON",
        "slug": "st-catharines",
        "edid": 35089,
        "current": true
    }
},
{
    "model": "core.riding",
    "pk": 35077,
    "fields": {
        "name_en": "St. Paul's",
        "name_fr": "",
        "province": "ON",
        "slug": "st-paul-s",
        "edid": 35077,
        "current": false
    }
},
{
    "model": "core.riding",
    "pk": 35078,
    "fields": {
        "name_en": "Sarnia--Lambton",
        "name_fr": "Sarnia--Lambton",
        "province": "ON",
        "slug": "sarnia-lambton",
        "edid": 35091,
        "current": true
    }
},
{
    "model": "core.riding",
    "pk": 35079,
    "fields": {
        "name_en": "Sault Ste. Marie",
        "name_fr": "Sault Ste. Marie",
        "province": "ON",
        "slug": "sault-ste-marie",
        "edid": 35092,
        "current": true
    }
},
{
    "model": "core.riding",
    "pk": 35080,
    "fields": {
        "name_en": "Scarborough--Agincourt",
        "name_fr": "Scarborough--Agincourt",
        "province": "ON",
        "slug": "scarborough-agincourt",
        "edid": 35093,
        "current": true
    }
},
{
    "model": "core.riding",
    "pk": 35081,
    "fields": {
        "name_en": "Scarborough Centre",
        "name_fr": "Scarborough-Centre",
        "province": "ON",
        "slug": "scarborough-centre",
        "edid": 35094,
        "current": true
    }
},
{
    "model": "core.riding",
    "pk": 35082,
    "fields": {
        "name_en": "Scarborough--Guildwood",
        "name_fr": "Scarborough--Guildwood",
        "province": "ON",
        "slug": "scarborough-guildwood",
        "edid": 35095,
        "current": true
    }
},
{
    "model": "core.riding",
    "pk": 35083,
    "fields": {
        "name_en": "Scarborough--Rouge River",
        "name_fr": "",
        "province": "ON",
        "slug": "scarborough-rouge-river",
        "edid": 35083,
        "current": false
    }
},
{
    "model": "core.riding",
    "pk": 35084,
    "fields": {
        "name_en": "Scarborough Southwest",
        "name_fr": "Scarborough-Sud-Ouest",
        "province": "ON",
        "slug": "scarborough-southwest",
        "edid": 35098,
        "current": true
    }
},
{
    "model": "core.riding",
    "pk": 35085,
    "fields": {
        "name_en": "Simcoe--Grey",
        "name_fr": "Simcoe--Grey",
        "province": "ON",
        "slug": "simcoe-grey",
        "edid": 35099,
        "current": true
    }
},
{
    "model": "core.riding",
    "pk": 35086,
    "fields": {
        "name_en": "Simcoe North",
        "name_fr": "Simcoe-Nord",
        "province": "ON",
        "slug": "simcoe-north",
        "edid": 35100,
        "current": true
    }
},
{
    "model": "core.riding",
    "pk": 35087,
    "fields": {
        "name_en": "Stormont--Dundas--South Glengarry",
        "name_fr": "Stormont--Dundas--South Glengarry",
        "province": "ON",
        "slug": "stormont-dundas-south-glengarry",
        "edid": 35102,
        "current": true
    }
},
{
    "model": "core.riding",
    "pk": 35088,
    "fields": {
        "name_en": "Sudbury",
        "name_fr": "Sudbury",
        "province": "ON",
        "slug": "sudbury",
        "edid": 35103,
        "current": true
    }
},
{
    "model": "core.riding",
    "pk": 35089,
    "fields": {
        "name_en": "Thornhill",
        "name_fr": "Thornhill",
        "province": "ON",
        "slug": "thornhill",
        "edid": 35104,
        "current": true
    }
},
{
    "model": "core.riding",
    "pk": 35090,
    "fields": {
        "name_en": "Thunder Bay--Rainy River",
        "name_fr": "Thunder Bay--Rainy River",
        "province": "ON",
        "slug": "thunder-bay-rainy-river",
        "edid": 35105,
        "current": true
    }
},
{
    "model": "core.riding",
    "pk": 35091,
    "fields": {
        "name_en": "Thunder Bay--Superior North",
        "name_fr": "Thunder Bay--Sup\u00e9rieur-Nord",
        "province": "ON",
        "slug": "thunder-bay-superior-north",
        "edid": 35106,
        "current": true
    }
},
{
    "model": "core.riding",
    "pk": 35092,
    "fields": {
        "name_en": "Timmins--James Bay",
        "name_fr": "Timmins--Baie James",
        "province": "ON",
        "slug": "timmins-james-bay",
        "edid": 35107,
        "current": true
    }
},
{
    "model": "core.riding",
    "pk": 35093,
    "fields": {
        "name_en": "Toronto Centre",
        "name_fr": "Toronto-Centre",
        "province": "ON",
        "slug": "toronto-centre",
        "edid": 35108,
        "current": true
    }
},
{
    "model": "core.riding",
    "pk": 35094,
    "fields": {
        "name_en": "Toronto--Danforth",
        "name_fr": "Toronto--Danforth",
        "province": "ON",
        "slug": "toronto-danforth",
        "edid": 35109,
        "current": true
    }
},
{
    "model": "core.riding",
    "pk": 35095,
    "fields": {
        "name_en": "Trinity--Spadina",
        "name_fr": "",
        "province": "ON",
        "slug": "trinity-spadina",
        "edid": 35095,
        "current": false
    }
},
{
    "model": "core.riding",
    "pk": 35096,
    "fields": {
        "name_en": "Vaughan",
        "name_fr": "",
        "province": "ON",
        "slug": "vaughan",
        "edid": 35096,
        "current": false
    }
},
{
    "model": "core.riding",
    "pk": 35097,
    "fields": {
        "name_en": "Welland",
        "name_fr": "",
        "province": "ON",
        "slug": "welland",
        "edid": 35097,
        "current": false
    }
},
{
    "model": "core.riding",
    "pk": 35098,
    "fields": {
        "name_en": "Wellington--Halton Hills",
        "name_fr": "Wellington--Halton Hills",
        "province": "ON",
        "slug": "wellington-halton-hills",
        "edid": 35113,
        "current": true
    }
},
{
    "model": "core.riding",
    "pk": 35099,
    "fields": {
        "name_en": "Whitby--Oshawa",
        "name_fr": "",
        "province": "ON",
        "slug": "whitby-oshawa",
        "edid": 35099,
        "current": false
    }
},
{
    "model": "core.riding",
    "pk": 35100,
    "fields": {
        "name_en": "Willowdale",
        "name_fr": "Willowdale",
        "province": "ON",
        "slug": "willowdale",
        "edid": 35115,
        "current": true
    }
},
{
    "model": "core.riding",
    "pk": 35101,
    "fields": {
        "name_en": "Windsor--Tecumseh",
        "name_fr": "Windsor--Tecumseh",
        "province": "ON",
        "slug": "windsor-tecumseh",
        "edid": 35116,
        "current": true
    }
},
{
    "model": "core.riding",
    "pk": 35102,
    "fields": {
        "name_en": "Windsor West",
        "name_fr": "Windsor-Ouest",
        "province": "ON",
        "slug": "windsor-west",
        "edid": 35117,
        "current": true
    }
},
{
    "model": "core.riding",
    "pk": 35103,
    "fields": {
        "name_en": "York Centre",
        "name_fr": "York-Centre",
        "province": "ON",
        "slug": "york-centre",
        "edid": 35118,
        "current": true
    }
},
{
    "model": "core.riding",
    "pk": 35104,
    "fields": {
        "name_en": "York--Simcoe",
        "name_fr": "York--Simcoe",
        "province": "ON",
        "slug": "york-simcoe",
        "edid": 35119,
        "current": true
    }
},
{
    "model": "core.riding",
    "pk": 35105,
    "fields": {
        "name_en": "York South--Weston",
        "name_fr": "York-Sud--Weston",
        "province": "ON",
        "slug": "york-south-weston",
        "edid": 35120,
        "current": true
    }
},
{
    "model": "core.riding",
    "pk": 35106,
    "fields": {
        "name_en": "York West",
        "name_fr": "",
        "province": "ON",
        "slug": "york-west",
        "edid": 35106,
        "current": false
    }
},
{
    "model": "core.riding",
    "pk": 46001,
    "fields": {
        "name_en": "Brandon--Souris",
        "name_fr": "Brandon--Souris",
        "province": "MB",
        "slug": "brandon-souris",
        "edid": 46001,
        "current": true
    }
},
{
    "model": "core.riding",
    "pk": 46002,
    "fields": {
        "name_en": "Charleswood--St. James--Assiniboia",
        "name_fr": "",
        "province": "MB",
        "slug": "charleswood-st-james-assiniboia",
        "edid": 46002,
        "current": false
    }
},
{
    "model": "core.riding",
    "pk": 46003,
    "fields": {
        "name_en": "Churchill",
        "name_fr": "",
        "province": "MB",
        "slug": "churchill",
        "edid": 46003,
        "current": false
    }
},
{
    "model": "core.riding",
    "pk": 46004,
    "fields": {
        "name_en": "Dauphin--Swan River--Marquette",
        "name_fr": "",
        "province": "MB",
        "slug": "dauphin-swan-river-marquette",
        "edid": 46004,
        "current": false
    }
},
{
    "model": "core.riding",
    "pk": 46005,
    "fields": {
        "name_en": "Elmwood--Transcona",
        "name_fr": "Elmwood--Transcona",
        "province": "MB",
        "slug": "elmwood-transcona",
        "edid": 46005,
        "current": true
    }
},
{
    "model": "core.riding",
    "pk": 46006,
    "fields": {
        "name_en": "Kildonan--St. Paul",
        "name_fr": "Kildonan--St. Paul",
        "province": "MB",
        "slug": "kildonan-st-paul",
        "edid": 46006,
        "current": true
    }
},
{
    "model": "core.riding",
    "pk": 46007,
    "fields": {
        "name_en": "Portage--Lisgar",
        "name_fr": "Portage--Lisgar",
        "province": "MB",
        "slug": "portage-lisgar",
        "edid": 46007,
        "current": true
    }
},
{
    "model": "core.riding",
    "pk": 46008,
    "fields": {
        "name_en": "Provencher",
        "name_fr": "Provencher",
        "province": "MB",
        "slug": "provencher",
        "edid": 46008,
        "current": true
    }
},
{
    "model": "core.riding",
    "pk": 46009,
    "fields": {
        "name_en": "Saint Boniface",
        "name_fr": "",
        "province": "MB",
        "slug": "saint-boniface",
        "edid": 46009,
        "current": false
    }
},
{
    "model": "core.riding",
    "pk": 46010,
    "fields": {
        "name_en": "Selkirk--Interlake",
        "name_fr": "",
        "province": "MB",
        "slug": "selkirk-interlake",
        "edid": 46010,
        "current": false
    }
},
{
    "model": "core.riding",
    "pk": 46011,
    "fields": {
        "name_en": "Winnipeg Centre",
        "name_fr": "Winnipeg-Centre",
        "province": "MB",
        "slug": "winnipeg-centre",
        "edid": 46011,
        "current": true
    }
},
{
    "model": "core.riding",
    "pk": 46012,
    "fields": {
        "name_en": "Winnipeg North",
        "name_fr": "Winnipeg-Nord",
        "province": "MB",
        "slug": "winnipeg-north",
        "edid": 46012,
        "current": true
    }
},
{
    "model": "core.riding",
    "pk": 46013,
    "fields": {
        "name_en": "Winnipeg South",
        "name_fr": "Winnipeg-Sud",
        "province": "MB",
        "slug": "winnipeg-south",
        "edid": 46013,
        "current": true
    }
},
{
    "model": "core.riding",
    "pk": 46014,
    "fields": {
        "name_en": "Winnipeg South Centre",
        "name_fr": "Winnipeg-Centre-Sud",
        "province": "MB",
        "slug": "winnipeg-south-centre",
        "edid": 46014,
        "current": true
    }
},
{
    "model": "core.riding",
    "pk": 47001,
    "fields": {
        "name_en": "Battlefords--Lloydminster",
        "name_fr": "Battlefords--Lloydminster",
        "province": "SK",
        "slug": "battlefords-lloydminster",
        "edid": 47001,
        "current": true
    }
},
{
    "model": "core.riding",
    "pk": 47002,
    "fields": {
        "name_en": "Blackstrap",
        "name_fr": "",
        "province": "SK",
        "slug": "blackstrap",
        "edid": 47002,
        "current": false
    }
},
{
    "model": "core.riding",
    "pk": 47003,
    "fields": {
        "name_en": "Desneth\u00e9--Missinippi--Churchill River",
        "name_fr": "Desneth\u00e9--Missinippi--Rivi\u00e8re Churchill",
        "province": "SK",
        "slug": "desnethe-missinippi-churchill-river",
        "edid": 47003,
        "current": true
    }
},
{
    "model": "core.riding",
    "pk": 47004,
    "fields": {
        "name_en": "Cypress Hills--Grasslands",
        "name_fr": "Cypress Hills--Grasslands",
        "province": "SK",
        "slug": "cypress-hills-grasslands",
        "edid": 47002,
        "current": true
    }
},
{
    "model": "core.riding",
    "pk": 47005,
    "fields": {
        "name_en": "Palliser",
        "name_fr": "",
        "province": "SK",
        "slug": "palliser",
        "edid": 47005,
        "current": false
    }
},
{
    "model": "core.riding",
    "pk": 47006,
    "fields": {
        "name_en": "Prince Albert",
        "name_fr": "Prince Albert",
        "province": "SK",
        "slug": "prince-albert",
        "edid": 47006,
        "current": true
    }
},
{
    "model": "core.riding",
    "pk": 47007,
    "fields": {
        "name_en": "Regina--Lumsden--Lake Centre",
        "name_fr": "",
        "province": "SK",
        "slug": "regina-lumsden-lake-centre",
        "edid": 47007,
        "current": false
    }
},
{
    "model": "core.riding",
    "pk": 47008,
    "fields": {
        "name_en": "Regina--Qu'Appelle",
        "name_fr": "Regina--Qu'Appelle",
        "province": "SK",
        "slug": "regina-qu-appelle",
        "edid": 47008,
        "current": true
    }
},
{
    "model": "core.riding",
    "pk": 47009,
    "fields": {
        "name_en": "Saskatoon--Humboldt",
        "name_fr": "",
        "province": "SK",
        "slug": "saskatoon-humboldt",
        "edid": 47009,
        "current": false
    }
},
{
    "model": "core.riding",
    "pk": 47010,
    "fields": {
        "name_en": "Saskatoon--Rosetown--Biggar",
        "name_fr": "",
        "province": "SK",
        "slug": "saskatoon-rosetown-biggar",
        "edid": 47010,
        "current": false
    }
},
{
    "model": "core.riding",
    "pk": 47011,
    "fields": {
        "name_en": "Saskatoon--Wanuskewin",
        "name_fr": "",
        "province": "SK",
        "slug": "saskatoon-wanuskewin",
        "edid": 47011,
        "current": false
    }
},
{
    "model": "core.riding",
    "pk": 47012,
    "fields": {
        "name_en": "Souris--Moose Mountain",
        "name_fr": "Souris--Moose Mountain",
        "province": "SK",
        "slug": "souris-moose-mountain",
        "edid": 47013,
        "current": true
    }
},
{
    "model": "core.riding",
    "pk": 47013,
    "fields": {
        "name_en": "Wascana",
        "name_fr": "",
        "province": "SK",
        "slug": "wascana",
        "edid": 47013,
        "current": false
    }
},
{
    "model": "core.riding",
    "pk": 47014,
    "fields": {
        "name_en": "Yorkton--Melville",
        "name_fr": "Yorkton--Melville",
        "province": "SK",
        "slug": "yorkton-melville",
        "edid": 47014,
        "current": true
    }
},
{
    "model": "core.riding",
    "pk": 48001,
    "fields": {
        "name_en": "Fort McMurray--Athabasca",
        "name_fr": "",
        "province": "AB",
        "slug": "fort-mcmurray-athabasca",
        "edid": 48001,
        "current": false
    }
},
{
    "model": "core.riding",
    "pk": 48002,
    "fields": {
        "name_en": "Calgary East",
        "name_fr": "",
        "province": "AB",
        "slug": "calgary-east",
        "edid": 48002,
        "current": false
    }
},
{
    "model": "core.riding",
    "pk": 48003,
    "fields": {
        "name_en": "Calgary Centre-North",
        "name_fr": "",
        "province": "AB",
        "slug": "calgary-centre-north",
        "edid": 48003,
        "current": false
    }
},
{
    "model": "core.riding",
    "pk": 48004,
    "fields": {
        "name_en": "Calgary Northeast",
        "name_fr": "",
        "province": "AB",
        "slug": "calgary-northeast",
        "edid": 48004,
        "current": false
    }
},
{
    "model": "core.riding",
    "pk": 48005,
    "fields": {
        "name_en": "Calgary Nose Hill",
        "name_fr": "Calgary Nose Hill",
        "province": "AB",
        "slug": "calgary-nose-hill",
        "edid": 48009,
        "current": true
    }
},
{
    "model": "core.riding",
    "pk": 48006,
    "fields": {
        "name_en": "Calgary Centre",
        "name_fr": "Calgary-Centre",
        "province": "AB",
        "slug": "calgary-centre",
        "edid": 48004,
        "current": true
    }
},
{
    "model": "core.riding",
    "pk": 48007,
    "fields": {
        "name_en": "Calgary Southeast",
        "name_fr": "",
        "province": "AB",
        "slug": "calgary-southeast",
        "edid": 48007,
        "current": false
    }
},
{
    "model": "core.riding",
    "pk": 48008,
    "fields": {
        "name_en": "Calgary Southwest",
        "name_fr": "",
        "province": "AB",
        "slug": "calgary-southwest",
        "edid": 48008,
        "current": false
    }
},
{
    "model": "core.riding",
    "pk": 48009,
    "fields": {
        "name_en": "Calgary West",
        "name_fr": "",
        "province": "AB",
        "slug": "calgary-west",
        "edid": 48009,
        "current": false
    }
},
{
    "model": "core.riding",
    "pk": 48010,
    "fields": {
        "name_en": "Crowfoot",
        "name_fr": "",
        "province": "AB",
        "slug": "crowfoot",
        "edid": 48010,
        "current": false
    }
},
{
    "model": "core.riding",
    "pk": 48011,
    "fields": {
        "name_en": "Edmonton--Mill Woods--Beaumont",
        "name_fr": "",
        "province": "AB",
        "slug": "edmonton-mill-woods-beaumont",
        "edid": 48011,
        "current": false
    }
},
{
    "model": "core.riding",
    "pk": 48012,
    "fields": {
        "name_en": "Edmonton Centre",
        "name_fr": "Edmonton-Centre",
        "province": "AB",
        "slug": "edmonton-centre",
        "edid": 48014,
        "current": true
    }
},
{
    "model": "core.riding",
    "pk": 48013,
    "fields": {
        "name_en": "Edmonton East",
        "name_fr": "",
        "province": "AB",
        "slug": "edmonton-east",
        "edid": 48013,
        "current": false
    }
},
{
    "model": "core.riding",
    "pk": 48014,
    "fields": {
        "name_en": "Edmonton--Leduc",
        "name_fr": "",
        "province": "AB",
        "slug": "edmonton-leduc",
        "edid": 48014,
        "current": false
    }
},
{
    "model": "core.riding",
    "pk": 48015,
    "fields": {
        "name_en": "Edmonton--St. Albert",
        "name_fr": "",
        "province": "AB",
        "slug": "edmonton-st-albert",
        "edid": 48015,
        "current": false
    }
},
{
    "model": "core.riding",
    "pk": 48016,
    "fields": {
        "name_en": "Edmonton--Sherwood Park",
        "name_fr": "",
        "province": "AB",
        "slug": "edmonton-sherwood-park",
        "edid": 48016,
        "current": false
    }
},
{
    "model": "core.riding",
    "pk": 48017,
    "fields": {
        "name_en": "Edmonton--Spruce Grove",
        "name_fr": "",
        "province": "AB",
        "slug": "edmonton-spruce-grove",
        "edid": 48017,
        "current": false
    }
},
{
    "model": "core.riding",
    "pk": 48018,
    "fields": {
        "name_en": "Edmonton Strathcona",
        "name_fr": "Edmonton Strathcona",
        "province": "AB",
        "slug": "edmonton-strathcona",
        "edid": 48019,
        "current": true
    }
},
{
    "model": "core.riding",
    "pk": 48019,
    "fields": {
        "name_en": "Lethbridge",
        "name_fr": "Lethbridge",
        "province": "AB",
        "slug": "lethbridge",
        "edid": 48026,
        "current": true
    }
},
{
    "model": "core.riding",
    "pk": 48020,
    "fields": {
        "name_en": "Macleod",
        "name_fr": "",
        "province": "AB",
        "slug": "macleod",
        "edid": 48020,
        "current": false
    }
},
{
    "model": "core.riding",
    "pk": 48021,
    "fields": {
        "name_en": "Medicine Hat",
        "name_fr": "",
        "province": "AB",
        "slug": "medicine-hat",
        "edid": 48021,
        "current": false
    }
},
{
    "model": "core.riding",
    "pk": 48022,
    "fields": {
        "name_en": "Peace River",
        "name_fr": "",
        "province": "AB",
        "slug": "peace-river",
        "edid": 48022,
        "current": false
    }
},
{
    "model": "core.riding",
    "pk": 48023,
    "fields": {
        "name_en": "Red Deer",
        "name_fr": "",
        "province": "AB",
        "slug": "red-deer",
        "edid": 48023,
        "current": false
    }
},
{
    "model": "core.riding",
    "pk": 48024,
    "fields": {
        "name_en": "Vegreville--Wainwright",
        "name_fr": "",
        "province": "AB",
        "slug": "vegreville-wainwright",
        "edid": 48024,
        "current": false
    }
},
{
    "model": "core.riding",
    "pk": 48025,
    "fields": {
        "name_en": "Westlock--St. Paul",
        "name_fr": "",
        "province": "AB",
        "slug": "westlock-st-paul",
        "edid": 48025,
        "current": false
    }
},
{
    "model": "core.riding",
    "pk": 48026,
    "fields": {
        "name_en": "Wetaskiwin",
        "name_fr": "",
        "province": "AB",
        "slug": "wetaskiwin",
        "edid": 48026,
        "current": false
    }
},
{
    "model": "core.riding",
    "pk": 48027,
    "fields": {
        "name_en": "Wild Rose",
        "name_fr": "",
        "province": "AB",
        "slug": "wild-rose",
        "edid": 48027,
        "current": false
    }
},
{
    "model": "core.riding",
    "pk": 48028,
    "fields": {
        "name_en": "Yellowhead",
        "name_fr": "Yellowhead",
        "province": "AB",
        "slug": "yellowhead",
        "edid": 48034,
        "current": true
    }
},
{
    "model": "core.riding",
    "pk": 59001,
    "fields": {
        "name_en": "Abbotsford",
        "name_fr": "Abbotsford",
        "province": "BC",
        "slug": "abbotsford",
        "edid": 59001,
        "current": true
    }
},
{
    "model": "core.riding",
    "pk": 59002,
    "fields": {
        "name_en": "Burnaby--Douglas",
        "name_fr": "",
        "province": "BC",
        "slug": "burnaby-douglas",
        "edid": 59002,
        "current": false
    }
},
{
    "model": "core.riding",
    "pk": 59003,
    "fields": {
        "name_en": "Burnaby--New Westminster",
        "name_fr": "",
        "province": "BC",
        "slug": "burnaby-new-westminster",
        "edid": 59003,
        "current": false
    }
},
{
    "model": "core.riding",
    "pk": 59004,
    "fields": {
        "name_en": "Cariboo--Prince George",
        "name_fr": "Cariboo--Prince George",
        "province": "BC",
        "slug": "cariboo-prince-george",
        "edid": 59004,
        "current": true
    }
},
{
    "model": "core.riding",
    "pk": 59005,
    "fields": {
        "name_en": "Chilliwack--Fraser Canyon",
        "name_fr": "",
        "province": "BC",
        "slug": "chilliwack-fraser-canyon",
        "edid": 59005,
        "current": false
    }
},
{
    "model": "core.riding",
    "pk": 59006,
    "fields": {
        "name_en": "Delta--Richmond East",
        "name_fr": "",
        "province": "BC",
        "slug": "delta-richmond-east",
        "edid": 59006,
        "current": false
    }
},
{
    "model": "core.riding",
    "pk": 59007,
    "fields": {
        "name_en": "Pitt Meadows--Maple Ridge--Mission",
        "name_fr": "",
        "province": "BC",
        "slug": "pitt-meadows-maple-ridge-mission",
        "edid": 59007,
        "current": false
    }
},
{
    "model": "core.riding",
    "pk": 59008,
    "fields": {
        "name_en": "Esquimalt--Juan de Fuca",
        "name_fr": "",
        "province": "BC",
        "slug": "esquimalt-juan-de-fuca",
        "edid": 59008,
        "current": false
    }
},
{
    "model": "core.riding",
    "pk": 59009,
    "fields": {
        "name_en": "Fleetwood--Port Kells",
        "name_fr": "Fleetwood--Port Kells",
        "province": "BC",
        "slug": "fleetwood-port-kells",
        "edid": 59012,
        "current": true
    }
},
{
    "model": "core.riding",
    "pk": 59010,
    "fields": {
        "name_en": "Kamloops--Thompson--Cariboo",
        "name_fr": "Kamloops--Thompson--Cariboo",
        "province": "BC",
        "slug": "kamloops-thompson-cariboo",
        "edid": 59013,
        "current": true
    }
},
{
    "model": "core.riding",
    "pk": 59011,
    "fields": {
        "name_en": "Kelowna--Lake Country",
        "name_fr": "Kelowna--Lake Country",
        "province": "BC",
        "slug": "kelowna-lake-country",
        "edid": 59014,
        "current": true
    }
},
{
    "model": "core.riding",
    "pk": 59012,
    "fields": {
        "name_en": "Kootenay--Columbia",
        "name_fr": "Kootenay--Columbia",
        "province": "BC",
        "slug": "kootenay-columbia",
        "edid": 59015,
        "current": true
    }
},
{
    "model": "core.riding",
    "pk": 59013,
    "fields": {
        "name_en": "Langley",
        "name_fr": "",
        "province": "BC",
        "slug": "langley",
        "edid": 59013,
        "current": false
    }
},
{
    "model": "core.riding",
    "pk": 59014,
    "fields": {
        "name_en": "Nanaimo--Alberni",
        "name_fr": "",
        "province": "BC",
        "slug": "nanaimo-alberni",
        "edid": 59014,
        "current": false
    }
},
{
    "model": "core.riding",
    "pk": 59015,
    "fields": {
        "name_en": "Nanaimo--Cowichan",
        "name_fr": "",
        "province": "BC",
        "slug": "nanaimo-cowichan",
        "edid": 59015,
        "current": false
    }
},
{
    "model": "core.riding",
    "pk": 59016,
    "fields": {
        "name_en": "Newton--North Delta",
        "name_fr": "",
        "province": "BC",
        "slug": "newton-north-delta",
        "edid": 59016,
        "current": false
    }
},
{
    "model": "core.riding",
    "pk": 59017,
    "fields": {
        "name_en": "New Westminster--Coquitlam",
        "name_fr": "",
        "province": "BC",
        "slug": "new-westminster-coquitlam",
        "edid": 59017,
        "current": false
    }
},
{
    "model": "core.riding",
    "pk": 59018,
    "fields": {
        "name_en": "Okanagan--Shuswap",
        "name_fr": "",
        "province": "BC",
        "slug": "okanagan-shuswap",
        "edid": 59018,
        "current": false
    }
},
{
    "model": "core.riding",
    "pk": 59019,
    "fields": {
        "name_en": "North Vancouver",
        "name_fr": "North Vancouver",
        "province": "BC",
        "slug": "north-vancouver",
        "edid": 59021,
        "current": true
    }
},
{
    "model": "core.riding",
    "pk": 59020,
    "fields": {
        "name_en": "Okanagan--Coquihalla",
        "name_fr": "",
        "province": "BC",
        "slug": "okanagan-coquihalla",
        "edid": 59020,
        "current": false
    }
},
{
    "model": "core.riding",
    "pk": 59021,
    "fields": {
        "name_en": "Port Moody--Westwood--Port Coquitlam",
        "name_fr": "",
        "province": "BC",
        "slug": "port-moody-westwood-port-coquitlam",
        "edid": 59021,
        "current": false
    }
},
{
    "model": "core.riding",
    "pk": 59022,
    "fields": {
        "name_en": "Prince George--Peace River",
        "name_fr": "",
        "province": "BC",
        "slug": "prince-george-peace-river",
        "edid": 59022,
        "current": false
    }
},
{
    "model": "core.riding",
    "pk": 59023,
    "fields": {
        "name_en": "Richmond",
        "name_fr": "",
        "province": "BC",
        "slug": "richmond",
        "edid": 59023,
        "current": false
    }
},
{
    "model": "core.riding",
    "pk": 59024,
    "fields": {
        "name_en": "Saanich--Gulf Islands",
        "name_fr": "Saanich--Gulf Islands",
        "province": "BC",
        "slug": "saanich-gulf-islands",
        "edid": 59027,
        "current": true
    }
},
{
    "model": "core.riding",
    "pk": 59025,
    "fields": {
        "name_en": "Skeena--Bulkley Valley",
        "name_fr": "Skeena--Bulkley Valley",
        "province": "BC",
        "slug": "skeena-bulkley-valley",
        "edid": 59028,
        "current": true
    }
},
{
    "model": "core.riding",
    "pk": 59026,
    "fields": {
        "name_en": "British Columbia Southern Interior",
        "name_fr": "",
        "province": "BC",
        "slug": "british-columbia-southern-interior",
        "edid": 59026,
        "current": false
    }
},
{
    "model": "core.riding",
    "pk": 59027,
    "fields": {
        "name_en": "South Surrey--White Rock--Cloverdale",
        "name_fr": "",
        "province": "BC",
        "slug": "south-surrey-white-rock-cloverdale",
        "edid": 59027,
        "current": false
    }
},
{
    "model": "core.riding",
    "pk": 59028,
    "fields": {
        "name_en": "Surrey North",
        "name_fr": "",
        "province": "BC",
        "slug": "surrey-north",
        "edid": 59028,
        "current": false
    }
},
{
    "model": "core.riding",
    "pk": 59029,
    "fields": {
        "name_en": "Vancouver Centre",
        "name_fr": "Vancouver-Centre",
        "province": "BC",
        "slug": "vancouver-centre",
        "edid": 59034,
        "current": true
    }
},
{
    "model": "core.riding",
    "pk": 59030,
    "fields": {
        "name_en": "Vancouver East",
        "name_fr": "Vancouver-Est",
        "province": "BC",
        "slug": "vancouver-east",
        "edid": 59035,
        "current": true
    }
},
{
    "model": "core.riding",
    "pk": 59031,
    "fields": {
        "name_en": "Vancouver Island North",
        "name_fr": "",
        "province": "BC",
        "slug": "vancouver-island-north",
        "edid": 59031,
        "current": false
    }
},
{
    "model": "core.riding",
    "pk": 59032,
    "fields": {
        "name_en": "Vancouver Kingsway",
        "name_fr": "Vancouver Kingsway",
        "province": "BC",
        "slug": "vancouver-kingsway",
        "edid": 59038,
        "current": true
    }
},
{
    "model": "core.riding",
    "pk": 59033,
    "fields": {
        "name_en": "Vancouver Quadra",
        "name_fr": "Vancouver Quadra",
        "province": "BC",
        "slug": "vancouver-quadra",
        "edid": 59039,
        "current": true
    }
},
{
    "model": "core.riding",
    "pk": 59034,
    "fields": {
        "name_en": "Vancouver South",
        "name_fr": "Vancouver-Sud",
        "province": "BC",
        "slug": "vancouver-south",
        "edid": 59040,
        "current": true
    }
},
{
    "model": "core.riding",
    "pk": 59035,
    "fields": {
        "name_en": "Victoria",
        "name_fr": "Victoria",
        "province": "BC",
        "slug": "victoria",
        "edid": 59041,
        "current": true
    }
},
{
    "model": "core.riding",
    "pk": 59036,
    "fields": {
        "name_en": "West Vancouver--Sunshine Coast--Sea to Sky Country",
        "name_fr": "West Vancouver--Sunshine Coast--Sea to Sky Country",
        "province": "BC",
        "slug": "west-vancouver-sunshine-coast-sea-to-sky-country",
        "edid": 59042,
        "current": true
    }
},
{
    "model": "core.riding",
    "pk": 60001,
    "fields": {
        "name_en": "Yukon",
        "name_fr": "Yukon",
        "province": "YT",
        "slug": "yukon",
        "edid": 60001,
        "current": true
    }
},
{
    "model": "core.riding",
    "pk": 61001,
    "fields": {
        "name_en": "Western Arctic",
        "name_fr": "",
        "province": "NT",
        "slug": "western-arctic",
        "edid": 61001,
        "current": false
    }
},
{
    "model": "core.riding",
    "pk": 62001,
    "fields": {
        "name_en": "Nunavut",
        "name_fr": "Nunavut",
        "province": "NU",
        "slug": "nunavut",
        "edid": 62001,
        "current": true
    }
},
{
    "model": "core.riding",
    "pk": 70001,
    "fields": {
        "name_en": "Athabasca",
        "name_fr": "",
        "province": "AB",
        "slug": "athabasca",
        "edid": null,
        "current": false
    }
},
{
    "model": "core.riding",
    "pk": 70002,
    "fields": {
        "name_en": "Calgary North Centre",
        "name_fr": "",
        "province": "AB",
        "slug": "calgary-north-centre",
        "edid": null,
        "current": false
    }
},
{
    "model": "core.riding",
    "pk": 70003,
    "fields": {
        "name_en": "Calgary South Centre",
        "name_fr": "",
        "province": "AB",
        "slug": "calgary-south-centre",
        "edid": null,
        "current": false
    }
},
{
    "model": "core.riding",
    "pk": 70004,
    "fields": {
        "name_en": "Edmonton--Beaumont",
        "name_fr": "",
        "province": "AB",
        "slug": "edmonton-beaumont",
        "edid": null,
        "current": false
    }
},
{
    "model": "core.riding",
    "pk": 70005,
    "fields": {
        "name_en": "Dewdney--Alouette",
        "name_fr": "",
        "province": "BC",
        "slug": "dewdney-alouette",
        "edid": null,
        "current": false
    }
},
{
    "model": "core.riding",
    "pk": 70006,
    "fields": {
        "name_en": "Kamloops--Thompson",
        "name_fr": "",
        "province": "BC",
        "slug": "kamloops-thompson",
        "edid": null,
        "current": false
    }
},
{
    "model": "core.riding",
    "pk": 70007,
    "fields": {
        "name_en": "Kelowna",
        "name_fr": "",
        "province": "BC",
        "slug": "kelowna",
        "edid": null,
        "current": false
    }
},
{
    "model": "core.riding",
    "pk": 70008,
    "fields": {
        "name_en": "North Okanagan--Shuswap",
        "name_fr": "North Okanagan--Shuswap",
        "province": "BC",
        "slug": "north-okanagan-shuswap",
        "edid": 59020,
        "current": true
    }
},
{
    "model": "core.riding",
    "pk": 70009,
    "fields": {
        "name_en": "Southern Interior",
        "name_fr": "",
        "province": "BC",
        "slug": "southern-interior",
        "edid": null,
        "current": false
    }
},
{
    "model": "core.riding",
    "pk": 70010,
    "fields": {
        "name_en": "West Vancouver--Sunshine Coast",
        "name_fr": "",
        "province": "BC",
        "slug": "west-vancouver-sunshine-coast",
        "edid": null,
        "current": false
    }
},
{
    "model": "core.riding",
    "pk": 70011,
    "fields": {
        "name_en": "Charleswood--St. James",
        "name_fr": "",
        "province": "MB",
        "slug": "charleswood-st-james",
        "edid": null,
        "current": false
    }
},
{
    "model": "core.riding",
    "pk": 70012,
    "fields": {
        "name_en": "Dauphin--Swan River",
        "name_fr": "",
        "province": "MB",
        "slug": "dauphin-swan-river",
        "edid": null,
        "current": false
    }
},
{
    "model": "core.riding",
    "pk": 70013,
    "fields": {
        "name_en": "Fundy",
        "name_fr": "",
        "province": "NB",
        "slug": "fundy",
        "edid": null,
        "current": false
    }
},
{
    "model": "core.riding",
    "pk": 70014,
    "fields": {
        "name_en": "St. Croix--Belleisle",
        "name_fr": "",
        "province": "NB",
        "slug": "st-croix-belleisle",
        "edid": null,
        "current": false
    }
},
{
    "model": "core.riding",
    "pk": 70015,
    "fields": {
        "name_en": "Bonavista--Exploits",
        "name_fr": "",
        "province": "NL",
        "slug": "bonavista-exploits",
        "edid": null,
        "current": false
    }
},
{
    "model": "core.riding",
    "pk": 70016,
    "fields": {
        "name_en": "St. John's North",
        "name_fr": "",
        "province": "NL",
        "slug": "st-john-s-north",
        "edid": null,
        "current": false
    }
},
{
    "model": "core.riding",
    "pk": 70017,
    "fields": {
        "name_en": "St. John's South",
        "name_fr": "",
        "province": "NL",
        "slug": "st-john-s-south",
        "edid": null,
        "current": false
    }
},
{
    "model": "core.riding",
    "pk": 70018,
    "fields": {
        "name_en": "North Nova",
        "name_fr": "",
        "province": "NS",
        "slug": "north-nova",
        "edid": null,
        "current": false
    }
},
{
    "model": "core.riding",
    "pk": 70019,
    "fields": {
        "name_en": "Carleton--Lanark",
        "name_fr": "",
        "province": "ON",
        "slug": "carleton-lanark",
        "edid": null,
        "current": false
    }
},
{
    "model": "core.riding",
    "pk": 70020,
    "fields": {
        "name_en": "Clarington--Scugog--Uxbridge",
        "name_fr": "",
        "province": "ON",
        "slug": "clarington-scugog-uxbridge",
        "edid": null,
        "current": false
    }
},
{
    "model": "core.riding",
    "pk": 70021,
    "fields": {
        "name_en": "Grey--Bruce--Owen Sound",
        "name_fr": "",
        "province": "ON",
        "slug": "grey-bruce-owen-sound",
        "edid": null,
        "current": false
    }
},
{
    "model": "core.riding",
    "pk": 70022,
    "fields": {
        "name_en": "Middlesex--Kent--Lambton",
        "name_fr": "",
        "province": "ON",
        "slug": "middlesex-kent-lambton",
        "edid": null,
        "current": false
    }
},
{
    "model": "core.riding",
    "pk": 70023,
    "fields": {
        "name_en": "Argenteuil--Mirabel",
        "name_fr": "",
        "province": "QC",
        "slug": "argenteuil-mirabel",
        "edid": null,
        "current": false
    }
},
{
    "model": "core.riding",
    "pk": 70024,
    "fields": {
        "name_en": "Beauport",
        "name_fr": "",
        "province": "QC",
        "slug": "beauport",
        "edid": null,
        "current": false
    }
},
{
    "model": "core.riding",
    "pk": 70025,
    "fields": {
        "name_en": "Charlesbourg",
        "name_fr": "",
        "province": "QC",
        "slug": "charlesbourg",
        "edid": null,
        "current": false
    }
},
{
    "model": "core.riding",
    "pk": 70026,
    "fields": {
        "name_en": "Charlevoix--Montmorency",
        "name_fr": "",
        "province": "QC",
        "slug": "charlevoix-montmorency",
        "edid": null,
        "current": false
    }
},
{
    "model": "core.riding",
    "pk": 70027,
    "fields": {
        "name_en": "Laurier",
        "name_fr": "",
        "province": "QC",
        "slug": "laurier",
        "edid": null,
        "current": false
    }
},
{
    "model": "core.riding",
    "pk": 70028,
    "fields": {
        "name_en": "Longueuil",
        "name_fr": "",
        "province": "QC",
        "slug": "longueuil",
        "edid": null,
        "current": false
    }
},
{
    "model": "core.riding",
    "pk": 70029,
    "fields": {
        "name_en": "Matap\u00e9dia--Matane",
        "name_fr": "",
        "province": "QC",
        "slug": "matapedia-matane",
        "edid": null,
        "current": false
    }
},
{
    "model": "core.riding",
    "pk": 70030,
    "fields": {
        "name_en": "Nunavik--Eeyou",
        "name_fr": "",
        "province": "QC",
        "slug": "nunavik-eeyou",
        "edid": null,
        "current": false
    }
},
{
    "model": "core.riding",
    "pk": 70031,
    "fields": {
        "name_en": "Portneuf",
        "name_fr": "",
        "province": "QC",
        "slug": "portneuf",
        "edid": null,
        "current": false
    }
},
{
    "model": "core.riding",
    "pk": 70032,
    "fields": {
        "name_en": "Richelieu",
        "name_fr": "",
        "province": "QC",
        "slug": "richelieu",
        "edid": null,
        "current": false
    }
},
{
    "model": "core.riding",
    "pk": 70033,
    "fields": {
        "name_en": "Rimouski--T\u00e9miscouata",
        "name_fr": "",
        "province": "QC",
        "slug": "rimouski-temiscouata",
        "edid": null,
        "current": false
    }
},
{
    "model": "core.riding",
    "pk": 70034,
    "fields": {
        "name_en": "Rivi\u00e8re-Du-Loup--Montmagny",
        "name_fr": "",
        "province": "QC",
        "slug": "riviere-du-loup-montmagny",
        "edid": null,
        "current": false
    }
},
{
    "model": "core.riding",
    "pk": 70035,
    "fields": {
        "name_en": "Roberval",
        "name_fr": "",
        "province": "QC",
        "slug": "roberval",
        "edid": null,
        "current": false
    }
},
{
    "model": "core.riding",
    "pk": 70036,
    "fields": {
        "name_en": "Churchill River",
        "name_fr": "",
        "province": "SK",
        "slug": "churchill-river",
        "edid": null,
        "current": false
    }
},
{
    "model": "core.riding",
    "pk": 70037,
    "fields": {
        "name_en": "Edmonton Centre-East",
        "name_fr": "",
        "province": "AB",
        "slug": "edmonton-centre-east",
        "edid": null,
        "current": false
    }
},
{
    "model": "core.riding",
    "pk": 70038,
    "fields": {
        "name_en": "Edmonton North",
        "name_fr": "",
        "province": "AB",
        "slug": "edmonton-north",
        "edid": null,
        "current": false
    }
},
{
    "model": "core.riding",
    "pk": 70039,
    "fields": {
        "name_en": "Edmonton Southeast",
        "name_fr": "",
        "province": "AB",
        "slug": "edmonton-southeast",
        "edid": null,
        "current": false
    }
},
{
    "model": "core.riding",
    "pk": 70040,
    "fields": {
        "name_en": "Edmonton Southwest",
        "name_fr": "",
        "province": "AB",
        "slug": "edmonton-southwest",
        "edid": null,
        "current": false
    }
},
{
    "model": "core.riding",
    "pk": 70041,
    "fields": {
        "name_en": "Edmonton West",
        "name_fr": "Edmonton-Ouest",
        "province": "AB",
        "slug": "edmonton-west",
        "edid": 48020,
        "current": true
    }
},
{
    "model": "core.riding",
    "pk": 70042,
    "fields": {
        "name_en": "Elk Island",
        "name_fr": "",
        "province": "AB",
        "slug": "elk-island",
        "edid": null,
        "current": false
    }
},
{
    "model": "core.riding",
    "pk": 70043,
    "fields": {
        "name_en": "Lakeland",
        "name_fr": "Lakeland",
        "province": "AB",
        "slug": "lakeland",
        "edid": 48025,
        "current": true
    }
},
{
    "model": "core.riding",
    "pk": 70044,
    "fields": {
        "name_en": "St. Albert",
        "name_fr": "",
        "province": "AB",
        "slug": "st-albert",
        "edid": null,
        "current": false
    }
},
{
    "model": "core.riding",
    "pk": 70045,
    "fields": {
        "name_en": "Cariboo--Chilcotin",
        "name_fr": "",
        "province": "BC",
        "slug": "cariboo-chilcotin",
        "edid": null,
        "current": false
    }
},
{
    "model": "core.riding",
    "pk": 70046,
    "fields": {
        "name_en": "Delta--South Richmond",
        "name_fr": "",
        "province": "BC",
        "slug": "delta-south-richmond",
        "edid": null,
        "current": false
    }
},
{
    "model": "core.riding",
    "pk": 70047,
    "fields": {
        "name_en": "Fraser Valley",
        "name_fr": "",
        "province": "BC",
        "slug": "fraser-valley",
        "edid": null,
        "current": false
    }
},
{
    "model": "core.riding",
    "pk": 70048,
    "fields": {
        "name_en": "Kamloops, Thompson And Highland Valleys",
        "name_fr": "",
        "province": "BC",
        "slug": "kamloops-thompson-and-highland-valleys",
        "edid": null,
        "current": false
    }
},
{
    "model": "core.riding",
    "pk": 70049,
    "fields": {
        "name_en": "Kootenay--Boundary--Okanagan",
        "name_fr": "",
        "province": "BC",
        "slug": "kootenay-boundary-okanagan",
        "edid": null,
        "current": false
    }
},
{
    "model": "core.riding",
    "pk": 70050,
    "fields": {
        "name_en": "Langley--Abbotsford",
        "name_fr": "",
        "province": "BC",
        "slug": "langley-abbotsford",
        "edid": null,
        "current": false
    }
},
{
    "model": "core.riding",
    "pk": 70051,
    "fields": {
        "name_en": "New Westminster--Coquitlam--Burnaby",
        "name_fr": "",
        "province": "BC",
        "slug": "new-westminster-coquitlam-burnaby",
        "edid": null,
        "current": false
    }
},
{
    "model": "core.riding",
    "pk": 70052,
    "fields": {
        "name_en": "Port Moody--Coquitlam--Port Coquitlam",
        "name_fr": "",
        "province": "BC",
        "slug": "port-moody-coquitlam-port-coquitlam",
        "edid": null,
        "current": false
    }
},
{
    "model": "core.riding",
    "pk": 70053,
    "fields": {
        "name_en": "Prince George--Bulkley Valley",
        "name_fr": "",
        "province": "BC",
        "slug": "prince-george-bulkley-valley",
        "edid": null,
        "current": false
    }
},
{
    "model": "core.riding",
    "pk": 70054,
    "fields": {
        "name_en": "Skeena",
        "name_fr": "",
        "province": "BC",
        "slug": "skeena",
        "edid": null,
        "current": false
    }
},
{
    "model": "core.riding",
    "pk": 70055,
    "fields": {
        "name_en": "South Surrey--White Rock--Langley",
        "name_fr": "",
        "province": "BC",
        "slug": "south-surrey-white-rock-langley",
        "edid": null,
        "current": false
    }
},
{
    "model": "core.riding",
    "pk": 70056,
    "fields": {
        "name_en": "Surrey Central",
        "name_fr": "",
        "province": "BC",
        "slug": "surrey-central",
        "edid": null,
        "current": false
    }
},
{
    "model": "core.riding",
    "pk": 70057,
    "fields": {
        "name_en": "Vancouver South--Burnaby",
        "name_fr": "",
        "province": "BC",
        "slug": "vancouver-south-burnaby",
        "edid": null,
        "current": false
    }
},
{
    "model": "core.riding",
    "pk": 70058,
    "fields": {
        "name_en": "Winnipeg North Centre",
        "name_fr": "",
        "province": "MB",
        "slug": "winnipeg-north-centre",
        "edid": null,
        "current": false
    }
},
{
    "model": "core.riding",
    "pk": 70059,
    "fields": {
        "name_en": "Winnipeg North--St. Paul",
        "name_fr": "",
        "province": "MB",
        "slug": "winnipeg-north-st-paul",
        "edid": null,
        "current": false
    }
},
{
    "model": "core.riding",
    "pk": 70060,
    "fields": {
        "name_en": "Winnipeg--Transcona",
        "name_fr": "",
        "province": "MB",
        "slug": "winnipeg-transcona",
        "edid": null,
        "current": false
    }
},
{
    "model": "core.riding",
    "pk": 70061,
    "fields": {
        "name_en": "Beaus\u00e9jour--Petitcodiac",
        "name_fr": "",
        "province": "NB",
        "slug": "beausejour-petitcodiac",
        "edid": null,
        "current": false
    }
},
{
    "model": "core.riding",
    "pk": 70062,
    "fields": {
        "name_en": "Bonavista--Trinity--Conception",
        "name_fr": "",
        "province": "NL",
        "slug": "bonavista-trinity-conception",
        "edid": null,
        "current": false
    }
},
{
    "model": "core.riding",
    "pk": 70063,
    "fields": {
        "name_en": "Burin--St. George's",
        "name_fr": "",
        "province": "NL",
        "slug": "burin-st-george-s",
        "edid": null,
        "current": false
    }
},
{
    "model": "core.riding",
    "pk": 70064,
    "fields": {
        "name_en": "Gander--Grand Falls",
        "name_fr": "",
        "province": "NL",
        "slug": "gander-grand-falls",
        "edid": null,
        "current": false
    }
},
{
    "model": "core.riding",
    "pk": 70065,
    "fields": {
        "name_en": "St. John's West",
        "name_fr": "",
        "province": "NL",
        "slug": "st-john-s-west",
        "edid": null,
        "current": false
    }
},
{
    "model": "core.riding",
    "pk": 70066,
    "fields": {
        "name_en": "Bras D'Or--Cape Breton",
        "name_fr": "",
        "province": "NS",
        "slug": "bras-d-or-cape-breton",
        "edid": null,
        "current": false
    }
},
{
    "model": "core.riding",
    "pk": 70067,
    "fields": {
        "name_en": "Cumberland--Colchester",
        "name_fr": "Cumberland--Colchester",
        "province": "NS",
        "slug": "cumberland-colchester",
        "edid": 12003,
        "current": true
    }
},
{
    "model": "core.riding",
    "pk": 70068,
    "fields": {
        "name_en": "Dartmouth",
        "name_fr": "",
        "province": "NS",
        "slug": "dartmouth",
        "edid": null,
        "current": false
    }
},
{
    "model": "core.riding",
    "pk": 70069,
    "fields": {
        "name_en": "Pictou--Antigonish--Guysborough",
        "name_fr": "",
        "province": "NS",
        "slug": "pictou-antigonish-guysborough",
        "edid": null,
        "current": false
    }
},
{
    "model": "core.riding",
    "pk": 70070,
    "fields": {
        "name_en": "Sackville--Musquodoboit Valley--Eastern Shore",
        "name_fr": "",
        "province": "NS",
        "slug": "sackville-musquodoboit-valley-eastern-shore",
        "edid": null,
        "current": false
    }
},
{
    "model": "core.riding",
    "pk": 70071,
    "fields": {
        "name_en": "South Shore",
        "name_fr": "",
        "province": "NS",
        "slug": "south-shore",
        "edid": null,
        "current": false
    }
},
{
    "model": "core.riding",
    "pk": 70072,
    "fields": {
        "name_en": "Algoma--Manitoulin",
        "name_fr": "",
        "province": "ON",
        "slug": "algoma-manitoulin",
        "edid": null,
        "current": false
    }
},
{
    "model": "core.riding",
    "pk": 70073,
    "fields": {
        "name_en": "Ancaster--Dundas--Flamborough--Aldershot",
        "name_fr": "",
        "province": "ON",
        "slug": "ancaster-dundas-flamborough-aldershot",
        "edid": null,
        "current": false
    }
},
{
    "model": "core.riding",
    "pk": 70074,
    "fields": {
        "name_en": "Barrie--Simcoe--Bradford",
        "name_fr": "",
        "province": "ON",
        "slug": "barrie-simcoe-bradford",
        "edid": null,
        "current": false
    }
},
{
    "model": "core.riding",
    "pk": 70075,
    "fields": {
        "name_en": "Bramalea--Gore--Malton--Springdale",
        "name_fr": "",
        "province": "ON",
        "slug": "bramalea-gore-malton-springdale",
        "edid": null,
        "current": false
    }
},
{
    "model": "core.riding",
    "pk": 70076,
    "fields": {
        "name_en": "Brampton Centre",
        "name_fr": "Brampton-Centre",
        "province": "ON",
        "slug": "brampton-centre",
        "edid": 35008,
        "current": true
    }
},
{
    "model": "core.riding",
    "pk": 70077,
    "fields": {
        "name_en": "Brampton West--Mississauga",
        "name_fr": "",
        "province": "ON",
        "slug": "brampton-west-mississauga",
        "edid": null,
        "current": false
    }
},
{
    "model": "core.riding",
    "pk": 70078,
    "fields": {
        "name_en": "Dufferin--Peel--Wellington--Grey",
        "name_fr": "",
        "province": "ON",
        "slug": "dufferin-peel-wellington-grey",
        "edid": null,
        "current": false
    }
},
{
    "model": "core.riding",
    "pk": 70079,
    "fields": {
        "name_en": "Erie--Lincoln",
        "name_fr": "",
        "province": "ON",
        "slug": "erie-lincoln",
        "edid": null,
        "current": false
    }
},
{
    "model": "core.riding",
    "pk": 70080,
    "fields": {
        "name_en": "Guelph--Wellington",
        "name_fr": "",
        "province": "ON",
        "slug": "guelph-wellington",
        "edid": null,
        "current": false
    }
},
{
    "model": "core.riding",
    "pk": 70081,
    "fields": {
        "name_en": "Haldimand--Norfolk--Brant",
        "name_fr": "",
        "province": "ON",
        "slug": "haldimand-norfolk-brant",
        "edid": null,
        "current": false
    }
},
{
    "model": "core.riding",
    "pk": 70082,
    "fields": {
        "name_en": "Haliburton--Victoria--Brock",
        "name_fr": "",
        "province": "ON",
        "slug": "haliburton-victoria-brock",
        "edid": null,
        "current": false
    }
},
{
    "model": "core.riding",
    "pk": 70083,
    "fields": {
        "name_en": "Hamilton East",
        "name_fr": "",
        "province": "ON",
        "slug": "hamilton-east",
        "edid": null,
        "current": false
    }
},
{
    "model": "core.riding",
    "pk": 70084,
    "fields": {
        "name_en": "Hamilton West",
        "name_fr": "",
        "province": "ON",
        "slug": "hamilton-west",
        "edid": null,
        "current": false
    }
},
{
    "model": "core.riding",
    "pk": 70085,
    "fields": {
        "name_en": "Hastings--Frontenac--Lennox And Addington",
        "name_fr": "",
        "province": "ON",
        "slug": "hastings-frontenac-lennox-and-addington",
        "edid": null,
        "current": false
    }
},
{
    "model": "core.riding",
    "pk": 70086,
    "fields": {
        "name_en": "Kenora--Rainy River",
        "name_fr": "",
        "province": "ON",
        "slug": "kenora-rainy-river",
        "edid": null,
        "current": false
    }
},
{
    "model": "core.riding",
    "pk": 70087,
    "fields": {
        "name_en": "Lanark--Carleton",
        "name_fr": "",
        "province": "ON",
        "slug": "lanark-carleton",
        "edid": null,
        "current": false
    }
},
{
    "model": "core.riding",
    "pk": 70088,
    "fields": {
        "name_en": "Markham",
        "name_fr": "",
        "province": "ON",
        "slug": "markham",
        "edid": null,
        "current": false
    }
},
{
    "model": "core.riding",
    "pk": 70089,
    "fields": {
        "name_en": "Mississauga Centre",
        "name_fr": "Mississauga-Centre",
        "province": "ON",
        "slug": "mississauga-centre",
        "edid": 35058,
        "current": true
    }
},
{
    "model": "core.riding",
    "pk": 70090,
    "fields": {
        "name_en": "Mississauga East",
        "name_fr": "",
        "province": "ON",
        "slug": "mississauga-east",
        "edid": null,
        "current": false
    }
},
{
    "model": "core.riding",
    "pk": 70091,
    "fields": {
        "name_en": "Mississauga West",
        "name_fr": "",
        "province": "ON",
        "slug": "mississauga-west",
        "edid": null,
        "current": false
    }
},
{
    "model": "core.riding",
    "pk": 70092,
    "fields": {
        "name_en": "Niagara Centre",
        "name_fr": "Niagara-Centre",
        "province": "ON",
        "slug": "niagara-centre",
        "edid": 35066,
        "current": true
    }
},
{
    "model": "core.riding",
    "pk": 70093,
    "fields": {
        "name_en": "Nipissing",
        "name_fr": "",
        "province": "ON",
        "slug": "nipissing",
        "edid": null,
        "current": false
    }
},
{
    "model": "core.riding",
    "pk": 70094,
    "fields": {
        "name_en": "Northumberland",
        "name_fr": "",
        "province": "ON",
        "slug": "northumberland",
        "edid": null,
        "current": false
    }
},
{
    "model": "core.riding",
    "pk": 70095,
    "fields": {
        "name_en": "Oak Ridges",
        "name_fr": "",
        "province": "ON",
        "slug": "oak-ridges",
        "edid": null,
        "current": false
    }
},
{
    "model": "core.riding",
    "pk": 70096,
    "fields": {
        "name_en": "Perth--Middlesex",
        "name_fr": "",
        "province": "ON",
        "slug": "perth-middlesex",
        "edid": null,
        "current": false
    }
},
{
    "model": "core.riding",
    "pk": 70097,
    "fields": {
        "name_en": "Pickering--Ajax--Uxbridge",
        "name_fr": "",
        "province": "ON",
        "slug": "pickering-ajax-uxbridge",
        "edid": null,
        "current": false
    }
},
{
    "model": "core.riding",
    "pk": 70098,
    "fields": {
        "name_en": "Scarborough East",
        "name_fr": "",
        "province": "ON",
        "slug": "scarborough-east",
        "edid": null,
        "current": false
    }
},
{
    "model": "core.riding",
    "pk": 70099,
    "fields": {
        "name_en": "Stoney Creek",
        "name_fr": "",
        "province": "ON",
        "slug": "stoney-creek",
        "edid": null,
        "current": false
    }
},
{
    "model": "core.riding",
    "pk": 70100,
    "fields": {
        "name_en": "Stormont--Dundas--Charlottenburgh",
        "name_fr": "",
        "province": "ON",
        "slug": "stormont-dundas-charlottenburgh",
        "edid": null,
        "current": false
    }
},
{
    "model": "core.riding",
    "pk": 70101,
    "fields": {
        "name_en": "Thunder Bay--Atikokan",
        "name_fr": "",
        "province": "ON",
        "slug": "thunder-bay-atikokan",
        "edid": null,
        "current": false
    }
},
{
    "model": "core.riding",
    "pk": 70102,
    "fields": {
        "name_en": "Timiskaming--Cochrane",
        "name_fr": "",
        "province": "ON",
        "slug": "timiskaming-cochrane",
        "edid": null,
        "current": false
    }
},
{
    "model": "core.riding",
    "pk": 70103,
    "fields": {
        "name_en": "Toronto Centre--Rosedale",
        "name_fr": "",
        "province": "ON",
        "slug": "toronto-centre-rosedale",
        "edid": null,
        "current": false
    }
},
{
    "model": "core.riding",
    "pk": 70104,
    "fields": {
        "name_en": "Vaughan--King--Aurora",
        "name_fr": "",
        "province": "ON",
        "slug": "vaughan-king-aurora",
        "edid": null,
        "current": false
    }
},
{
    "model": "core.riding",
    "pk": 70105,
    "fields": {
        "name_en": "Waterloo--Wellington",
        "name_fr": "",
        "province": "ON",
        "slug": "waterloo-wellington",
        "edid": null,
        "current": false
    }
},
{
    "model": "core.riding",
    "pk": 70106,
    "fields": {
        "name_en": "Whitby--Ajax",
        "name_fr": "",
        "province": "ON",
        "slug": "whitby-ajax",
        "edid": null,
        "current": false
    }
},
{
    "model": "core.riding",
    "pk": 70107,
    "fields": {
        "name_en": "Windsor--St. Clair",
        "name_fr": "",
        "province": "ON",
        "slug": "windsor-st-clair",
        "edid": null,
        "current": false
    }
},
{
    "model": "core.riding",
    "pk": 70108,
    "fields": {
        "name_en": "York North",
        "name_fr": "",
        "province": "ON",
        "slug": "york-north",
        "edid": null,
        "current": false
    }
},
{
    "model": "core.riding",
    "pk": 70109,
    "fields": {
        "name_en": "Hillsborough",
        "name_fr": "",
        "province": "PE",
        "slug": "hillsborough",
        "edid": null,
        "current": false
    }
},
{
    "model": "core.riding",
    "pk": 70110,
    "fields": {
        "name_en": "Abitibi--Baie-James--Nunavik",
        "name_fr": "",
        "province": "QC",
        "slug": "abitibi-baie-james-nunavik",
        "edid": null,
        "current": false
    }
},
{
    "model": "core.riding",
    "pk": 70111,
    "fields": {
        "name_en": "Anjou--Rivi\u00e8re-Des-Prairies",
        "name_fr": "",
        "province": "QC",
        "slug": "anjou-riviere-des-prairies",
        "edid": null,
        "current": false
    }
},
{
    "model": "core.riding",
    "pk": 70112,
    "fields": {
        "name_en": "Beauport--Montmorency--C\u00f4te-De- Beaupr\u00e9--\u00cele-D'Orl\u00e9ans",
        "name_fr": "",
        "province": "QC",
        "slug": "beauport-montmorency-cote-de-beaupre-ile-d-orleans",
        "edid": null,
        "current": false
    }
},
{
    "model": "core.riding",
    "pk": 70113,
    "fields": {
        "name_en": "Bellechasse--Etchemins--Montmagny--L'Islet",
        "name_fr": "",
        "province": "QC",
        "slug": "bellechasse-etchemins-montmagny-l-islet",
        "edid": null,
        "current": false
    }
},
{
    "model": "core.riding",
    "pk": 70114,
    "fields": {
        "name_en": "Berthier--Montcalm",
        "name_fr": "",
        "province": "QC",
        "slug": "berthier-montcalm",
        "edid": null,
        "current": false
    }
},
{
    "model": "core.riding",
    "pk": 70115,
    "fields": {
        "name_en": "Bonaventure--Gasp\u00e9--\u00celes-De-La-Madeleine--Pabok",
        "name_fr": "",
        "province": "QC",
        "slug": "bonaventure-gaspe-iles-de-la-madeleine-pabok",
        "edid": null,
        "current": false
    }
},
{
    "model": "core.riding",
    "pk": 70116,
    "fields": {
        "name_en": "Chambly",
        "name_fr": "",
        "province": "QC",
        "slug": "chambly",
        "edid": null,
        "current": false
    }
},
{
    "model": "core.riding",
    "pk": 70117,
    "fields": {
        "name_en": "Champlain",
        "name_fr": "",
        "province": "QC",
        "slug": "champlain",
        "edid": null,
        "current": false
    }
},
{
    "model": "core.riding",
    "pk": 70118,
    "fields": {
        "name_en": "Charlesbourg--Jacques-Cartier",
        "name_fr": "",
        "province": "QC",
        "slug": "charlesbourg-jacques-cartier",
        "edid": null,
        "current": false
    }
},
{
    "model": "core.riding",
    "pk": 70119,
    "fields": {
        "name_en": "Charlevoix",
        "name_fr": "",
        "province": "QC",
        "slug": "charlevoix",
        "edid": null,
        "current": false
    }
},
{
    "model": "core.riding",
    "pk": 70120,
    "fields": {
        "name_en": "Ch\u00e2teauguay",
        "name_fr": "",
        "province": "QC",
        "slug": "chateauguay",
        "edid": null,
        "current": false
    }
},
{
    "model": "core.riding",
    "pk": 70121,
    "fields": {
        "name_en": "Frontenac--M\u00e9gantic",
        "name_fr": "",
        "province": "QC",
        "slug": "frontenac-megantic",
        "edid": null,
        "current": false
    }
},
{
    "model": "core.riding",
    "pk": 70122,
    "fields": {
        "name_en": "Hochelaga--Maisonneuve",
        "name_fr": "",
        "province": "QC",
        "slug": "hochelaga-maisonneuve",
        "edid": null,
        "current": false
    }
},
{
    "model": "core.riding",
    "pk": 70123,
    "fields": {
        "name_en": "Jonqui\u00e8re",
        "name_fr": "Jonqui\u00e8re",
        "province": "QC",
        "slug": "jonquiere",
        "edid": 24032,
        "current": true
    }
},
{
    "model": "core.riding",
    "pk": 70124,
    "fields": {
        "name_en": "Kamouraska--Rivi\u00e8re-Du-Loup--T\u00e9miscouata--Les Basques",
        "name_fr": "",
        "province": "QC",
        "slug": "kamouraska-riviere-du-loup-temiscouata-les-basques",
        "edid": null,
        "current": false
    }
},
{
    "model": "core.riding",
    "pk": 70125,
    "fields": {
        "name_en": "Lac-Saint-Jean--Saguenay",
        "name_fr": "",
        "province": "QC",
        "slug": "lac-saint-jean-saguenay",
        "edid": null,
        "current": false
    }
},
{
    "model": "core.riding",
    "pk": 70126,
    "fields": {
        "name_en": "Laurentides",
        "name_fr": "",
        "province": "QC",
        "slug": "laurentides",
        "edid": null,
        "current": false
    }
},
{
    "model": "core.riding",
    "pk": 70127,
    "fields": {
        "name_en": "Laval Centre",
        "name_fr": "",
        "province": "QC",
        "slug": "laval-centre",
        "edid": null,
        "current": false
    }
},
{
    "model": "core.riding",
    "pk": 70128,
    "fields": {
        "name_en": "Laval East",
        "name_fr": "",
        "province": "QC",
        "slug": "laval-east",
        "edid": null,
        "current": false
    }
},
{
    "model": "core.riding",
    "pk": 70129,
    "fields": {
        "name_en": "Laval West",
        "name_fr": "",
        "province": "QC",
        "slug": "laval-west",
        "edid": null,
        "current": false
    }
},
{
    "model": "core.riding",
    "pk": 70130,
    "fields": {
        "name_en": "L\u00e9vis-Et-Chutes-De-La-Chaudi\u00e8re",
        "name_fr": "",
        "province": "QC",
        "slug": "levis-et-chutes-de-la-chaudiere",
        "edid": null,
        "current": false
    }
},
{
    "model": "core.riding",
    "pk": 70131,
    "fields": {
        "name_en": "Lotbini\u00e8re--L'\u00c9rable",
        "name_fr": "",
        "province": "QC",
        "slug": "lotbiniere-l-erable",
        "edid": null,
        "current": false
    }
},
{
    "model": "core.riding",
    "pk": 70132,
    "fields": {
        "name_en": "Mercier",
        "name_fr": "",
        "province": "QC",
        "slug": "mercier",
        "edid": null,
        "current": false
    }
},
{
    "model": "core.riding",
    "pk": 70133,
    "fields": {
        "name_en": "Papineau--Saint-Denis",
        "name_fr": "",
        "province": "QC",
        "slug": "papineau-saint-denis",
        "edid": null,
        "current": false
    }
},
{
    "model": "core.riding",
    "pk": 70134,
    "fields": {
        "name_en": "Pontiac--Gatineau--Labelle",
        "name_fr": "",
        "province": "QC",
        "slug": "pontiac-gatineau-labelle",
        "edid": null,
        "current": false
    }
},
{
    "model": "core.riding",
    "pk": 70135,
    "fields": {
        "name_en": "Qu\u00e9bec East",
        "name_fr": "",
        "province": "QC",
        "slug": "quebec-east",
        "edid": null,
        "current": false
    }
},
{
    "model": "core.riding",
    "pk": 70136,
    "fields": {
        "name_en": "Rimouski-Neigette-Et-La Mitis",
        "name_fr": "",
        "province": "QC",
        "slug": "rimouski-neigette-et-la-mitis",
        "edid": null,
        "current": false
    }
},
{
    "model": "core.riding",
    "pk": 70137,
    "fields": {
        "name_en": "Rosemont--Petite-Patrie",
        "name_fr": "",
        "province": "QC",
        "slug": "rosemont-petite-patrie",
        "edid": null,
        "current": false
    }
},
{
    "model": "core.riding",
    "pk": 70138,
    "fields": {
        "name_en": "Saint-Maurice",
        "name_fr": "",
        "province": "QC",
        "slug": "saint-maurice",
        "edid": null,
        "current": false
    }
},
{
    "model": "core.riding",
    "pk": 70139,
    "fields": {
        "name_en": "T\u00e9miscamingue",
        "name_fr": "",
        "province": "QC",
        "slug": "temiscamingue",
        "edid": null,
        "current": false
    }
},
{
    "model": "core.riding",
    "pk": 70140,
    "fields": {
        "name_en": "Verdun--Saint-Henri--Saint-Paul--Pointe Saint-Charles",
        "name_fr": "",
        "province": "QC",
        "slug": "verdun-saint-henri-saint-paul-pointe-saint-charles",
        "edid": null,
        "current": false
    }
},
{
    "model": "core.riding",
    "pk": 70141,
    "fields": {
        "name_en": "Kamloops",
        "name_fr": "",
        "province": "BC",
        "slug": "kamloops",
        "edid": null,
        "current": false
    }
},
{
    "model": "core.riding",
    "pk": 70142,
    "fields": {
        "name_en": "Port Moody--Coquitlam",
        "name_fr": "Port Moody--Coquitlam",
        "province": "BC",
        "slug": "port-moody-coquitlam",
        "edid": 59023,
        "current": true
    }
},
{
    "model": "core.riding",
    "pk": 70143,
    "fields": {
        "name_en": "West Kootenay--Okanagan",
        "name_fr": "",
        "province": "BC",
        "slug": "west-kootenay-okanagan",
        "edid": null,
        "current": false
    }
},
{
    "model": "core.riding",
    "pk": 70144,
    "fields": {
        "name_en": "Charleswood--Assiniboine",
        "name_fr": "",
        "province": "MB",
        "slug": "charleswood-assiniboine",
        "edid": null,
        "current": false
    }
},
{
    "model": "core.riding",
    "pk": 70145,
    "fields": {
        "name_en": "Charlotte",
        "name_fr": "",
        "province": "NB",
        "slug": "charlotte",
        "edid": null,
        "current": false
    }
},
{
    "model": "core.riding",
    "pk": 70146,
    "fields": {
        "name_en": "Moncton",
        "name_fr": "",
        "province": "NB",
        "slug": "moncton",
        "edid": null,
        "current": false
    }
},
{
    "model": "core.riding",
    "pk": 70147,
    "fields": {
        "name_en": "Bras D'Or",
        "name_fr": "",
        "province": "NS",
        "slug": "bras-d-or",
        "edid": null,
        "current": false
    }
},
{
    "model": "core.riding",
    "pk": 70148,
    "fields": {
        "name_en": "Broadview--Greenwood",
        "name_fr": "",
        "province": "ON",
        "slug": "broadview-greenwood",
        "edid": null,
        "current": false
    }
},
{
    "model": "core.riding",
    "pk": 70149,
    "fields": {
        "name_en": "Bruce--Grey",
        "name_fr": "",
        "province": "ON",
        "slug": "bruce-grey",
        "edid": null,
        "current": false
    }
},
{
    "model": "core.riding",
    "pk": 70150,
    "fields": {
        "name_en": "Carleton--Gloucester",
        "name_fr": "",
        "province": "ON",
        "slug": "carleton-gloucester",
        "edid": null,
        "current": false
    }
},
{
    "model": "core.riding",
    "pk": 70151,
    "fields": {
        "name_en": "Kent--Essex",
        "name_fr": "",
        "province": "ON",
        "slug": "kent-essex",
        "edid": null,
        "current": false
    }
},
{
    "model": "core.riding",
    "pk": 70152,
    "fields": {
        "name_en": "Stormont--Dundas",
        "name_fr": "",
        "province": "ON",
        "slug": "stormont-dundas",
        "edid": null,
        "current": false
    }
},
{
    "model": "core.riding",
    "pk": 70153,
    "fields": {
        "name_en": "Thunder Bay--Nipigon",
        "name_fr": "",
        "province": "ON",
        "slug": "thunder-bay-nipigon",
        "edid": null,
        "current": false
    }
},
{
    "model": "core.riding",
    "pk": 70154,
    "fields": {
        "name_en": "Victoria--Haliburton",
        "name_fr": "",
        "province": "ON",
        "slug": "victoria-haliburton",
        "edid": null,
        "current": false
    }
},
{
    "model": "core.riding",
    "pk": 70155,
    "fields": {
        "name_en": "Wentworth--Burlington",
        "name_fr": "",
        "province": "ON",
        "slug": "wentworth-burlington",
        "edid": null,
        "current": false
    }
},
{
    "model": "core.riding",
    "pk": 70156,
    "fields": {
        "name_en": "Abitibi",
        "name_fr": "",
        "province": "QC",
        "slug": "abitibi",
        "edid": null,
        "current": false
    }
},
{
    "model": "core.riding",
    "pk": 70157,
    "fields": {
        "name_en": "Argenteuil--Papineau",
        "name_fr": "",
        "province": "QC",
        "slug": "argenteuil-papineau",
        "edid": null,
        "current": false
    }
},
{
    "model": "core.riding",
    "pk": 70158,
    "fields": {
        "name_en": "Beauport--Montmorency--Orl\u00e9ans",
        "name_fr": "",
        "province": "QC",
        "slug": "beauport-montmorency-orleans",
        "edid": null,
        "current": false
    }
},
{
    "model": "core.riding",
    "pk": 70159,
    "fields": {
        "name_en": "Chicoutimi",
        "name_fr": "",
        "province": "QC",
        "slug": "chicoutimi",
        "edid": null,
        "current": false
    }
},
{
    "model": "core.riding",
    "pk": 70160,
    "fields": {
        "name_en": "Lac-Saint-Jean",
        "name_fr": "Lac-Saint-Jean",
        "province": "QC",
        "slug": "lac-saint-jean",
        "edid": 24035,
        "current": true
    }
},
{
    "model": "core.riding",
    "pk": 70161,
    "fields": {
        "name_en": "L\u00e9vis",
        "name_fr": "",
        "province": "QC",
        "slug": "levis",
        "edid": null,
        "current": false
    }
},
{
    "model": "core.riding",
    "pk": 70162,
    "fields": {
        "name_en": "Lotbini\u00e8re",
        "name_fr": "",
        "province": "QC",
        "slug": "lotbiniere",
        "edid": null,
        "current": false
    }
},
{
    "model": "core.riding",
    "pk": 70163,
    "fields": {
        "name_en": "Rimouski--Mitis",
        "name_fr": "",
        "province": "QC",
        "slug": "rimouski-mitis",
        "edid": null,
        "current": false
    }
},
{
    "model": "core.riding",
    "pk": 70164,
    "fields": {
        "name_en": "Rosemont",
        "name_fr": "",
        "province": "QC",
        "slug": "rosemont",
        "edid": null,
        "current": false
    }
},
{
    "model": "core.riding",
    "pk": 70165,
    "fields": {
        "name_en": "Saint-Eustache--Sainte-Th\u00e9r\u00e8se",
        "name_fr": "",
        "province": "QC",
        "slug": "saint-eustache-sainte-therese",
        "edid": null,
        "current": false
    }
},
{
    "model": "core.riding",
    "pk": 70166,
    "fields": {
        "name_en": "Verch\u00e8res",
        "name_fr": "",
        "province": "QC",
        "slug": "vercheres",
        "edid": null,
        "current": false
    }
},
{
    "model": "core.riding",
    "pk": 70167,
    "fields": {
        "name_en": "Verdun--Saint-Henri",
        "name_fr": "",
        "province": "QC",
        "slug": "verdun-saint-henri",
        "edid": null,
        "current": false
    }
},
{
    "model": "core.riding",
    "pk": 70168,
    "fields": {
        "name_en": "Qu'Appelle",
        "name_fr": "",
        "province": "SK",
        "slug": "qu-appelle",
        "edid": null,
        "current": false
    }
},
{
    "model": "core.riding",
    "pk": 70169,
    "fields": {
        "name_en": "Wanuskewin",
        "name_fr": "",
        "province": "SK",
        "slug": "wanuskewin",
        "edid": null,
        "current": false
    }
},
{
    "model": "core.riding",
    "pk": 70170,
    "fields": {
        "name_en": "Beaver River",
        "name_fr": "",
        "province": "AB",
        "slug": "beaver-river",
        "edid": null,
        "current": false
    }
},
{
    "model": "core.riding",
    "pk": 70171,
    "fields": {
        "name_en": "Calgary North",
        "name_fr": "",
        "province": "AB",
        "slug": "calgary-north",
        "edid": null,
        "current": false
    }
},
{
    "model": "core.riding",
    "pk": 70172,
    "fields": {
        "name_en": "Edmonton Northwest",
        "name_fr": "",
        "province": "AB",
        "slug": "edmonton-northwest",
        "edid": null,
        "current": false
    }
},
{
    "model": "core.riding",
    "pk": 70173,
    "fields": {
        "name_en": "Vegreville",
        "name_fr": "",
        "province": "AB",
        "slug": "vegreville",
        "edid": null,
        "current": false
    }
},
{
    "model": "core.riding",
    "pk": 70174,
    "fields": {
        "name_en": "Burnaby--Kingsway",
        "name_fr": "",
        "province": "BC",
        "slug": "burnaby-kingsway",
        "edid": null,
        "current": false
    }
},
{
    "model": "core.riding",
    "pk": 70175,
    "fields": {
        "name_en": "Capilano--Howe Sound",
        "name_fr": "",
        "province": "BC",
        "slug": "capilano-howe-sound",
        "edid": null,
        "current": false
    }
},
{
    "model": "core.riding",
    "pk": 70176,
    "fields": {
        "name_en": "Comox--Alberni",
        "name_fr": "",
        "province": "BC",
        "slug": "comox-alberni",
        "edid": null,
        "current": false
    }
},
{
    "model": "core.riding",
    "pk": 70177,
    "fields": {
        "name_en": "Delta",
        "name_fr": "Delta",
        "province": "BC",
        "slug": "delta",
        "edid": 59011,
        "current": true
    }
},
{
    "model": "core.riding",
    "pk": 70178,
    "fields": {
        "name_en": "Fraser Valley East",
        "name_fr": "",
        "province": "BC",
        "slug": "fraser-valley-east",
        "edid": null,
        "current": false
    }
},
{
    "model": "core.riding",
    "pk": 70179,
    "fields": {
        "name_en": "Fraser Valley West",
        "name_fr": "",
        "province": "BC",
        "slug": "fraser-valley-west",
        "edid": null,
        "current": false
    }
},
{
    "model": "core.riding",
    "pk": 70180,
    "fields": {
        "name_en": "Kootenay East",
        "name_fr": "",
        "province": "BC",
        "slug": "kootenay-east",
        "edid": null,
        "current": false
    }
},
{
    "model": "core.riding",
    "pk": 70181,
    "fields": {
        "name_en": "Kootenay West--Revelstoke",
        "name_fr": "",
        "province": "BC",
        "slug": "kootenay-west-revelstoke",
        "edid": null,
        "current": false
    }
},
{
    "model": "core.riding",
    "pk": 70182,
    "fields": {
        "name_en": "Mission--Coquitlam",
        "name_fr": "",
        "province": "BC",
        "slug": "mission-coquitlam",
        "edid": null,
        "current": false
    }
},
{
    "model": "core.riding",
    "pk": 70183,
    "fields": {
        "name_en": "New Westminster--Burnaby",
        "name_fr": "New Westminster--Burnaby",
        "province": "BC",
        "slug": "new-westminster-burnaby",
        "edid": 59019,
        "current": true
    }
},
{
    "model": "core.riding",
    "pk": 70184,
    "fields": {
        "name_en": "North Island--Powell River",
        "name_fr": "North Island--Powell River",
        "province": "BC",
        "slug": "north-island-powell-river",
        "edid": 59037,
        "current": true
    }
},
{
    "model": "core.riding",
    "pk": 70185,
    "fields": {
        "name_en": "Okanagan Centre",
        "name_fr": "",
        "province": "BC",
        "slug": "okanagan-centre",
        "edid": null,
        "current": false
    }
},
{
    "model": "core.riding",
    "pk": 70186,
    "fields": {
        "name_en": "Okanagan--Similkameen--Merritt",
        "name_fr": "",
        "province": "BC",
        "slug": "okanagan-similkameen-merritt",
        "edid": null,
        "current": false
    }
},
{
    "model": "core.riding",
    "pk": 70187,
    "fields": {
        "name_en": "Surrey--White Rock--South Langley",
        "name_fr": "",
        "province": "BC",
        "slug": "surrey-white-rock-south-langley",
        "edid": null,
        "current": false
    }
},
{
    "model": "core.riding",
    "pk": 70188,
    "fields": {
        "name_en": "Lisgar--Marquette",
        "name_fr": "",
        "province": "MB",
        "slug": "lisgar-marquette",
        "edid": null,
        "current": false
    }
},
{
    "model": "core.riding",
    "pk": 70189,
    "fields": {
        "name_en": "Portage--Interlake",
        "name_fr": "",
        "province": "MB",
        "slug": "portage-interlake",
        "edid": null,
        "current": false
    }
},
{
    "model": "core.riding",
    "pk": 70190,
    "fields": {
        "name_en": "Selkirk--Red River",
        "name_fr": "",
        "province": "MB",
        "slug": "selkirk-red-river",
        "edid": null,
        "current": false
    }
},
{
    "model": "core.riding",
    "pk": 70191,
    "fields": {
        "name_en": "St. Boniface",
        "name_fr": "",
        "province": "MB",
        "slug": "st-boniface",
        "edid": null,
        "current": false
    }
},
{
    "model": "core.riding",
    "pk": 70192,
    "fields": {
        "name_en": "Winnipeg--St. James",
        "name_fr": "",
        "province": "MB",
        "slug": "winnipeg-st-james",
        "edid": null,
        "current": false
    }
},
{
    "model": "core.riding",
    "pk": 70193,
    "fields": {
        "name_en": "Carleton--Charlotte",
        "name_fr": "",
        "province": "NB",
        "slug": "carleton-charlotte",
        "edid": null,
        "current": false
    }
},
{
    "model": "core.riding",
    "pk": 70194,
    "fields": {
        "name_en": "Fredericton--York--Sunbury",
        "name_fr": "",
        "province": "NB",
        "slug": "fredericton-york-sunbury",
        "edid": null,
        "current": false
    }
},
{
    "model": "core.riding",
    "pk": 70195,
    "fields": {
        "name_en": "Madawaska--Victoria",
        "name_fr": "",
        "province": "NB",
        "slug": "madawaska-victoria",
        "edid": null,
        "current": false
    }
},
{
    "model": "core.riding",
    "pk": 70196,
    "fields": {
        "name_en": "Restigouche--Chaleur",
        "name_fr": "",
        "province": "NB",
        "slug": "restigouche-chaleur",
        "edid": null,
        "current": false
    }
},
{
    "model": "core.riding",
    "pk": 70197,
    "fields": {
        "name_en": "Nunatsiaq",
        "name_fr": "",
        "province": "NT",
        "slug": "nunatsiaq",
        "edid": null,
        "current": false
    }
},
{
    "model": "core.riding",
    "pk": 70198,
    "fields": {
        "name_en": "Annapolis Valley--Hants",
        "name_fr": "",
        "province": "NS",
        "slug": "annapolis-valley-hants",
        "edid": null,
        "current": false
    }
},
{
    "model": "core.riding",
    "pk": 70199,
    "fields": {
        "name_en": "Cape Breton Highlands--Canso",
        "name_fr": "",
        "province": "NS",
        "slug": "cape-breton-highlands-canso",
        "edid": null,
        "current": false
    }
},
{
    "model": "core.riding",
    "pk": 70200,
    "fields": {
        "name_en": "Cape Breton--East Richmond",
        "name_fr": "",
        "province": "NS",
        "slug": "cape-breton-east-richmond",
        "edid": null,
        "current": false
    }
},
{
    "model": "core.riding",
    "pk": 70201,
    "fields": {
        "name_en": "Cape Breton--The Sydneys",
        "name_fr": "",
        "province": "NS",
        "slug": "cape-breton-the-sydneys",
        "edid": null,
        "current": false
    }
},
{
    "model": "core.riding",
    "pk": 70202,
    "fields": {
        "name_en": "South West Nova",
        "name_fr": "",
        "province": "NS",
        "slug": "south-west-nova",
        "edid": null,
        "current": false
    }
},
{
    "model": "core.riding",
    "pk": 70203,
    "fields": {
        "name_en": "Algoma",
        "name_fr": "",
        "province": "ON",
        "slug": "algoma",
        "edid": null,
        "current": false
    }
},
{
    "model": "core.riding",
    "pk": 70204,
    "fields": {
        "name_en": "Beaches--Woodbine",
        "name_fr": "",
        "province": "ON",
        "slug": "beaches-woodbine",
        "edid": null,
        "current": false
    }
},
{
    "model": "core.riding",
    "pk": 70205,
    "fields": {
        "name_en": "Brampton",
        "name_fr": "",
        "province": "ON",
        "slug": "brampton",
        "edid": null,
        "current": false
    }
},
{
    "model": "core.riding",
    "pk": 70206,
    "fields": {
        "name_en": "Cochrane--Superior",
        "name_fr": "",
        "province": "ON",
        "slug": "cochrane-superior",
        "edid": null,
        "current": false
    }
},
{
    "model": "core.riding",
    "pk": 70207,
    "fields": {
        "name_en": "Don Valley North",
        "name_fr": "Don Valley-Nord",
        "province": "ON",
        "slug": "don-valley-north",
        "edid": 35020,
        "current": true
    }
},
{
    "model": "core.riding",
    "pk": 70208,
    "fields": {
        "name_en": "Elgin--Norfolk",
        "name_fr": "",
        "province": "ON",
        "slug": "elgin-norfolk",
        "edid": null,
        "current": false
    }
},
{
    "model": "core.riding",
    "pk": 70209,
    "fields": {
        "name_en": "Erie",
        "name_fr": "",
        "province": "ON",
        "slug": "erie",
        "edid": null,
        "current": false
    }
},
{
    "model": "core.riding",
    "pk": 70210,
    "fields": {
        "name_en": "Essex--Kent",
        "name_fr": "",
        "province": "ON",
        "slug": "essex-kent",
        "edid": null,
        "current": false
    }
},
{
    "model": "core.riding",
    "pk": 70211,
    "fields": {
        "name_en": "Essex--Windsor",
        "name_fr": "",
        "province": "ON",
        "slug": "essex-windsor",
        "edid": null,
        "current": false
    }
},
{
    "model": "core.riding",
    "pk": 70212,
    "fields": {
        "name_en": "Halton--Peel",
        "name_fr": "",
        "province": "ON",
        "slug": "halton-peel",
        "edid": null,
        "current": false
    }
},
{
    "model": "core.riding",
    "pk": 70213,
    "fields": {
        "name_en": "Hamilton--Wentworth",
        "name_fr": "",
        "province": "ON",
        "slug": "hamilton-wentworth",
        "edid": null,
        "current": false
    }
},
{
    "model": "core.riding",
    "pk": 70214,
    "fields": {
        "name_en": "Kent",
        "name_fr": "",
        "province": "ON",
        "slug": "kent",
        "edid": null,
        "current": false
    }
},
{
    "model": "core.riding",
    "pk": 70215,
    "fields": {
        "name_en": "Kitchener",
        "name_fr": "",
        "province": "ON",
        "slug": "kitchener",
        "edid": null,
        "current": false
    }
},
{
    "model": "core.riding",
    "pk": 70216,
    "fields": {
        "name_en": "Lambton--Middlesex",
        "name_fr": "",
        "province": "ON",
        "slug": "lambton-middlesex",
        "edid": null,
        "current": false
    }
},
{
    "model": "core.riding",
    "pk": 70217,
    "fields": {
        "name_en": "Lincoln",
        "name_fr": "",
        "province": "ON",
        "slug": "lincoln",
        "edid": null,
        "current": false
    }
},
{
    "model": "core.riding",
    "pk": 70218,
    "fields": {
        "name_en": "London East",
        "name_fr": "",
        "province": "ON",
        "slug": "london-east",
        "edid": null,
        "current": false
    }
},
{
    "model": "core.riding",
    "pk": 70219,
    "fields": {
        "name_en": "London--Middlesex",
        "name_fr": "",
        "province": "ON",
        "slug": "london-middlesex",
        "edid": null,
        "current": false
    }
},
{
    "model": "core.riding",
    "pk": 70220,
    "fields": {
        "name_en": "Markham--Whitchurch-Stouffville",
        "name_fr": "",
        "province": "ON",
        "slug": "markham-whitchurch-stouffville",
        "edid": null,
        "current": false
    }
},
{
    "model": "core.riding",
    "pk": 70221,
    "fields": {
        "name_en": "Nepean",
        "name_fr": "Nepean",
        "province": "ON",
        "slug": "nepean",
        "edid": 35064,
        "current": true
    }
},
{
    "model": "core.riding",
    "pk": 70222,
    "fields": {
        "name_en": "Oakville--Milton",
        "name_fr": "",
        "province": "ON",
        "slug": "oakville-milton",
        "edid": null,
        "current": false
    }
},
{
    "model": "core.riding",
    "pk": 70223,
    "fields": {
        "name_en": "Ontario",
        "name_fr": "",
        "province": "ON",
        "slug": "ontario",
        "edid": null,
        "current": false
    }
},
{
    "model": "core.riding",
    "pk": 70224,
    "fields": {
        "name_en": "Ottawa West",
        "name_fr": "",
        "province": "ON",
        "slug": "ottawa-west",
        "edid": null,
        "current": false
    }
},
{
    "model": "core.riding",
    "pk": 70225,
    "fields": {
        "name_en": "Perth--Wellington--Waterloo",
        "name_fr": "",
        "province": "ON",
        "slug": "perth-wellington-waterloo",
        "edid": null,
        "current": false
    }
},
{
    "model": "core.riding",
    "pk": 70226,
    "fields": {
        "name_en": "Rosedale",
        "name_fr": "",
        "province": "ON",
        "slug": "rosedale",
        "edid": null,
        "current": false
    }
},
{
    "model": "core.riding",
    "pk": 70227,
    "fields": {
        "name_en": "Scarborough West",
        "name_fr": "",
        "province": "ON",
        "slug": "scarborough-west",
        "edid": null,
        "current": false
    }
},
{
    "model": "core.riding",
    "pk": 70228,
    "fields": {
        "name_en": "Simcoe Centre",
        "name_fr": "",
        "province": "ON",
        "slug": "simcoe-centre",
        "edid": null,
        "current": false
    }
},
{
    "model": "core.riding",
    "pk": 70229,
    "fields": {
        "name_en": "Timiskaming--French-River",
        "name_fr": "",
        "province": "ON",
        "slug": "timiskaming-french-river",
        "edid": null,
        "current": false
    }
},
{
    "model": "core.riding",
    "pk": 70230,
    "fields": {
        "name_en": "Timmins--Chapleau",
        "name_fr": "",
        "province": "ON",
        "slug": "timmins-chapleau",
        "edid": null,
        "current": false
    }
},
{
    "model": "core.riding",
    "pk": 70231,
    "fields": {
        "name_en": "Waterloo",
        "name_fr": "Waterloo",
        "province": "ON",
        "slug": "waterloo",
        "edid": 35112,
        "current": true
    }
},
{
    "model": "core.riding",
    "pk": 70232,
    "fields": {
        "name_en": "Welland--St. Catharines--Thorold",
        "name_fr": "",
        "province": "ON",
        "slug": "welland-st-catharines-thorold",
        "edid": null,
        "current": false
    }
},
{
    "model": "core.riding",
    "pk": 70233,
    "fields": {
        "name_en": "Wellington--Grey--Dufferin--Simcoe",
        "name_fr": "",
        "province": "ON",
        "slug": "wellington-grey-dufferin-simcoe",
        "edid": null,
        "current": false
    }
},
{
    "model": "core.riding",
    "pk": 70234,
    "fields": {
        "name_en": "Bellechasse",
        "name_fr": "",
        "province": "QC",
        "slug": "bellechasse",
        "edid": null,
        "current": false
    }
},
{
    "model": "core.riding",
    "pk": 70235,
    "fields": {
        "name_en": "Blainville--Deux-Montagnes",
        "name_fr": "",
        "province": "QC",
        "slug": "blainville-deux-montagnes",
        "edid": null,
        "current": false
    }
},
{
    "model": "core.riding",
    "pk": 70236,
    "fields": {
        "name_en": "Bonaventure--\u00celes-De-La-Madeleine",
        "name_fr": "",
        "province": "QC",
        "slug": "bonaventure-iles-de-la-madeleine",
        "edid": null,
        "current": false
    }
},
{
    "model": "core.riding",
    "pk": 70237,
    "fields": {
        "name_en": "Frontenac",
        "name_fr": "",
        "province": "QC",
        "slug": "frontenac",
        "edid": null,
        "current": false
    }
},
{
    "model": "core.riding",
    "pk": 70238,
    "fields": {
        "name_en": "Gasp\u00e9",
        "name_fr": "",
        "province": "QC",
        "slug": "gaspe",
        "edid": null,
        "current": false
    }
},
{
    "model": "core.riding",
    "pk": 70239,
    "fields": {
        "name_en": "Gatineau--La Li\u00e8vre",
        "name_fr": "",
        "province": "QC",
        "slug": "gatineau-la-lievre",
        "edid": null,
        "current": false
    }
},
{
    "model": "core.riding",
    "pk": 70240,
    "fields": {
        "name_en": "Kamouraska--Rivi\u00e8re-Du-Loup",
        "name_fr": "",
        "province": "QC",
        "slug": "kamouraska-riviere-du-loup",
        "edid": null,
        "current": false
    }
},
{
    "model": "core.riding",
    "pk": 70241,
    "fields": {
        "name_en": "La Prairie",
        "name_fr": "La Prairie",
        "province": "QC",
        "slug": "la-prairie",
        "edid": 24034,
        "current": true
    }
},
{
    "model": "core.riding",
    "pk": 70242,
    "fields": {
        "name_en": "Lachine--Lac-Saint-Louis",
        "name_fr": "",
        "province": "QC",
        "slug": "lachine-lac-saint-louis",
        "edid": null,
        "current": false
    }
},
{
    "model": "core.riding",
    "pk": 70243,
    "fields": {
        "name_en": "M\u00e9gantic--Compton--Stanstead",
        "name_fr": "",
        "province": "QC",
        "slug": "megantic-compton-stanstead",
        "edid": null,
        "current": false
    }
},
{
    "model": "core.riding",
    "pk": 70244,
    "fields": {
        "name_en": "Notre-Dame-De-Gr\u00e2ce",
        "name_fr": "",
        "province": "QC",
        "slug": "notre-dame-de-grace",
        "edid": null,
        "current": false
    }
},
{
    "model": "core.riding",
    "pk": 70245,
    "fields": {
        "name_en": "Papineau--Saint-Michel",
        "name_fr": "",
        "province": "QC",
        "slug": "papineau-saint-michel",
        "edid": null,
        "current": false
    }
},
{
    "model": "core.riding",
    "pk": 70246,
    "fields": {
        "name_en": "Qu\u00e9bec-Est",
        "name_fr": "",
        "province": "QC",
        "slug": "quebec-est",
        "edid": null,
        "current": false
    }
},
{
    "model": "core.riding",
    "pk": 70247,
    "fields": {
        "name_en": "Richmond--Wolfe",
        "name_fr": "",
        "province": "QC",
        "slug": "richmond-wolfe",
        "edid": null,
        "current": false
    }
},
{
    "model": "core.riding",
    "pk": 70248,
    "fields": {
        "name_en": "Saint-Denis",
        "name_fr": "",
        "province": "QC",
        "slug": "saint-denis",
        "edid": null,
        "current": false
    }
},
{
    "model": "core.riding",
    "pk": 70249,
    "fields": {
        "name_en": "Saint-Henri--Westmount",
        "name_fr": "",
        "province": "QC",
        "slug": "saint-henri-westmount",
        "edid": null,
        "current": false
    }
},
{
    "model": "core.riding",
    "pk": 70250,
    "fields": {
        "name_en": "Saint-Hubert",
        "name_fr": "",
        "province": "QC",
        "slug": "saint-hubert",
        "edid": null,
        "current": false
    }
},
{
    "model": "core.riding",
    "pk": 70251,
    "fields": {
        "name_en": "Saint-L\u00e9onard",
        "name_fr": "",
        "province": "QC",
        "slug": "saint-leonard",
        "edid": null,
        "current": false
    }
},
{
    "model": "core.riding",
    "pk": 70252,
    "fields": {
        "name_en": "Terrebonne",
        "name_fr": "Terrebonne",
        "province": "QC",
        "slug": "terrebonne",
        "edid": 24075,
        "current": true
    }
},
{
    "model": "core.riding",
    "pk": 70253,
    "fields": {
        "name_en": "Vaudreuil",
        "name_fr": "",
        "province": "QC",
        "slug": "vaudreuil",
        "edid": null,
        "current": false
    }
},
{
    "model": "core.riding",
    "pk": 70254,
    "fields": {
        "name_en": "Verdun--Saint-Paul",
        "name_fr": "",
        "province": "QC",
        "slug": "verdun-saint-paul",
        "edid": null,
        "current": false
    }
},
{
    "model": "core.riding",
    "pk": 70255,
    "fields": {
        "name_en": "Kindersley--Lloydminster",
        "name_fr": "",
        "province": "SK",
        "slug": "kindersley-lloydminster",
        "edid": null,
        "current": false
    }
},
{
    "model": "core.riding",
    "pk": 70256,
    "fields": {
        "name_en": "Mackenzie",
        "name_fr": "",
        "province": "SK",
        "slug": "mackenzie",
        "edid": null,
        "current": false
    }
},
{
    "model": "core.riding",
    "pk": 70257,
    "fields": {
        "name_en": "Moose Jaw--Lake Centre",
        "name_fr": "",
        "province": "SK",
        "slug": "moose-jaw-lake-centre",
        "edid": null,
        "current": false
    }
},
{
    "model": "core.riding",
    "pk": 70258,
    "fields": {
        "name_en": "Prince Albert--Churchill River",
        "name_fr": "",
        "province": "SK",
        "slug": "prince-albert-churchill-river",
        "edid": null,
        "current": false
    }
},
{
    "model": "core.riding",
    "pk": 70259,
    "fields": {
        "name_en": "Regina--Lumsden",
        "name_fr": "",
        "province": "SK",
        "slug": "regina-lumsden",
        "edid": null,
        "current": false
    }
},
{
    "model": "core.riding",
    "pk": 70260,
    "fields": {
        "name_en": "Regina--Wascana",
        "name_fr": "Regina--Wascana",
        "province": "SK",
        "slug": "regina-wascana",
        "edid": 47009,
        "current": true
    }
},
{
    "model": "core.riding",
    "pk": 70261,
    "fields": {
        "name_en": "Saskatoon--Clark's Crossing",
        "name_fr": "",
        "province": "SK",
        "slug": "saskatoon-clark-s-crossing",
        "edid": null,
        "current": false
    }
},
{
    "model": "core.riding",
    "pk": 70262,
    "fields": {
        "name_en": "Saskatoon--Dundurn",
        "name_fr": "",
        "province": "SK",
        "slug": "saskatoon-dundurn",
        "edid": null,
        "current": false
    }
},
{
    "model": "core.riding",
    "pk": 70263,
    "fields": {
        "name_en": "Swift Current--Maple Creek--Assiniboia",
        "name_fr": "",
        "province": "SK",
        "slug": "swift-current-maple-creek-assiniboia",
        "edid": null,
        "current": false
    }
},
{
    "model": "core.riding",
    "pk": 70264,
    "fields": {
        "name_en": "The Battlefords--Meadow Lake",
        "name_fr": "",
        "province": "SK",
        "slug": "the-battlefords-meadow-lake",
        "edid": null,
        "current": false
    }
},
{
    "model": "core.riding",
    "pk": 70265,
    "fields": {
        "name_en": "Northwest Territories",
        "name_fr": "Territoires du Nord-Ouest",
        "province": "NT",
        "slug": "northwest-territories",
        "edid": 61001,
        "current": true
    }
},
{
    "model": "core.riding",
    "pk": 70266,
    "fields": {
        "name_en": "Calgary Heritage",
        "name_fr": "Calgary Heritage",
        "province": "AB",
        "slug": "calgary-heritage",
        "edid": 48007,
        "current": true
    }
},
{
    "model": "core.riding",
    "pk": 70267,
    "fields": {
        "name_en": "Calgary Shepard",
        "name_fr": "Calgary Shepard",
        "province": "AB",
        "slug": "calgary-shepard",
        "edid": 48011,
        "current": true
    }
},
{
    "model": "core.riding",
    "pk": 70268,
    "fields": {
        "name_en": "Beauport--C\u00f4te-de-Beaupr\u00e9--\u00cele d\u0092Orl\u00e9ans--Charlevoix",
        "name_fr": "Beauport--C\u00f4te-de-Beaupr\u00e9--\u00cele d'Orl\u00e9ans--Charlevoix",
        "province": "QC",
        "slug": "beauport-cote-de-beaupre-ile-d-orleans-charlevoix",
        "edid": 24020,
        "current": true
    }
},
{
    "model": "core.riding",
    "pk": 70269,
    "fields": {
        "name_en": "Vaughan--Woodbridge",
        "name_fr": "Vaughan--Woodbridge",
        "province": "ON",
        "slug": "vaughan-woodbridge",
        "edid": 35111,
        "current": true
    }
},
{
    "model": "core.riding",
    "pk": 70270,
    "fields": {
        "name_en": "Brampton South",
        "name_fr": "Brampton-Sud",
        "province": "ON",
        "slug": "brampton-south",
        "edid": 35011,
        "current": true
    }
},
{
    "model": "core.riding",
    "pk": 70271,
    "fields": {
        "name_en": "Brossard--Saint-Lambert",
        "name_fr": "Brossard--Saint-Lambert",
        "province": "QC",
        "slug": "brossard-saint-lambert",
        "edid": 24017,
        "current": true
    }
},
{
    "model": "core.riding",
    "pk": 70272,
    "fields": {
        "name_en": "Ch\u00e2teauguay--Lacolle",
        "name_fr": "Ch\u00e2teauguay--Lacolle",
        "province": "QC",
        "slug": "chateauguay-lacolle",
        "edid": 24021,
        "current": true
    }
},
{
    "model": "core.riding",
    "pk": 70273,
    "fields": {
        "name_en": "Burnaby North--Seymour",
        "name_fr": "Burnaby-Nord--Seymour",
        "province": "BC",
        "slug": "burnaby-north-seymour",
        "edid": 59002,
        "current": true
    }
},
{
    "model": "core.riding",
    "pk": 70274,
    "fields": {
        "name_en": "Salaberry--Suro\u00eet",
        "name_fr": "Salaberry--Suro\u00eet",
        "province": "QC",
        "slug": "salaberry-suroit",
        "edid": 24071,
        "current": true
    }
},
{
    "model": "core.riding",
    "pk": 70275,
    "fields": {
        "name_en": "Chatham-Kent--Leamington",
        "name_fr": "Chatham-Kent--Leamington",
        "province": "ON",
        "slug": "chatham-kent-leamington",
        "edid": 35017,
        "current": true
    }
},
{
    "model": "core.riding",
    "pk": 70276,
    "fields": {
        "name_en": "Hamilton West--Ancaster--Dundas",
        "name_fr": "Hamilton-Ouest--Ancaster--Dundas",
        "province": "ON",
        "slug": "hamilton-west-ancaster-dundas",
        "edid": 35038,
        "current": true
    }
},
{
    "model": "core.riding",
    "pk": 70277,
    "fields": {
        "name_en": "Northumberland--Peterborough South",
        "name_fr": "Northumberland--Peterborough-Sud",
        "province": "ON",
        "slug": "northumberland-peterborough-south",
        "edid": 35071,
        "current": true
    }
},
{
    "model": "core.riding",
    "pk": 70278,
    "fields": {
        "name_en": "Markham--Stouffville",
        "name_fr": "Markham--Stouffville",
        "province": "ON",
        "slug": "markham-stouffville",
        "edid": 35054,
        "current": true
    }
},
{
    "model": "core.riding",
    "pk": 70279,
    "fields": {
        "name_en": "Selkirk--Interlake--Eastman",
        "name_fr": "Selkirk--Interlake--Eastman",
        "province": "MB",
        "slug": "selkirk-interlake-eastman",
        "edid": 46010,
        "current": true
    }
},
{
    "model": "core.riding",
    "pk": 70280,
    "fields": {
        "name_en": "Gasp\u00e9sie--Les-\u00celes-de-la-Madeleine",
        "name_fr": "Gasp\u00e9sie--Les-\u00celes-de-la-Madeleine",
        "province": "QC",
        "slug": "gaspesie-les-iles-de-la-madeleine",
        "edid": 24026,
        "current": true
    }
},
{
    "model": "core.riding",
    "pk": 70281,
    "fields": {
        "name_en": "Courtenay--Alberni",
        "name_fr": "Courtenay--Alberni",
        "province": "BC",
        "slug": "courtenay-alberni",
        "edid": 59009,
        "current": true
    }
},
{
    "model": "core.riding",
    "pk": 70282,
    "fields": {
        "name_en": "Calgary Rocky Ridge",
        "name_fr": "Calgary Rocky Ridge",
        "province": "AB",
        "slug": "calgary-rocky-ridge",
        "edid": 48010,
        "current": true
    }
},
{
    "model": "core.riding",
    "pk": 70283,
    "fields": {
        "name_en": "Calgary Signal Hill",
        "name_fr": "Calgary Signal Hill",
        "province": "AB",
        "slug": "calgary-signal-hill",
        "edid": 48012,
        "current": true
    }
},
{
    "model": "core.riding",
    "pk": 70284,
    "fields": {
        "name_en": "Calgary Skyview",
        "name_fr": "Calgary Skyview",
        "province": "AB",
        "slug": "calgary-skyview",
        "edid": 48013,
        "current": true
    }
},
{
    "model": "core.riding",
    "pk": 70285,
    "fields": {
        "name_en": "South Shore--St. Margarets",
        "name_fr": "South Shore--St. Margarets",
        "province": "NS",
        "slug": "south-shore-st-margarets",
        "edid": 12009,
        "current": true
    }
},
{
    "model": "core.riding",
    "pk": 70286,
    "fields": {
        "name_en": "Sackville--Preston--Chezzetcook",
        "name_fr": "Sackville--Preston--Chezzetcook",
        "province": "NS",
        "slug": "sackville-preston-chezzetcook",
        "edid": 12008,
        "current": true
    }
},
{
    "model": "core.riding",
    "pk": 70287,
    "fields": {
        "name_en": "B\u00e9cancour--Nicolet--Saurel",
        "name_fr": "B\u00e9cancour--Nicolet--Saurel",
        "province": "QC",
        "slug": "becancour-nicolet-saurel",
        "edid": 24009,
        "current": true
    }
},
{
    "model": "core.riding",
    "pk": 70288,
    "fields": {
        "name_en": "Beloeil--Chambly",
        "name_fr": "Beloeil--Chambly",
        "province": "QC",
        "slug": "beloeil-chambly",
        "edid": 24011,
        "current": true
    }
},
{
    "model": "core.riding",
    "pk": 70289,
    "fields": {
        "name_en": "Bellechasse--Les Etchemins--L\u00e9vis",
        "name_fr": "Bellechasse--Les Etchemins--L\u00e9vis",
        "province": "QC",
        "slug": "bellechasse-les-etchemins-levis",
        "edid": 24010,
        "current": true
    }
},
{
    "model": "core.riding",
    "pk": 70290,
    "fields": {
        "name_en": "Mission--Matsqui--Fraser Canyon",
        "name_fr": "Mission--Matsqui--Fraser Canyon",
        "province": "BC",
        "slug": "mission-matsqui-fraser-canyon",
        "edid": 59017,
        "current": true
    }
},
{
    "model": "core.riding",
    "pk": 70291,
    "fields": {
        "name_en": "Pitt Meadows--Maple Ridge",
        "name_fr": "Pitt Meadows--Maple Ridge",
        "province": "BC",
        "slug": "pitt-meadows-maple-ridge",
        "edid": 59022,
        "current": true
    }
},
{
    "model": "core.riding",
    "pk": 70292,
    "fields": {
        "name_en": "Saskatoon West",
        "name_fr": "Saskatoon-Ouest",
        "province": "SK",
        "slug": "saskatoon-west",
        "edid": 47012,
        "current": true
    }
},
{
    "model": "core.riding",
    "pk": 70293,
    "fields": {
        "name_en": "Surrey--Newton",
        "name_fr": "Surrey--Newton",
        "province": "BC",
        "slug": "surrey-newton",
        "edid": 59033,
        "current": true
    }
},
{
    "model": "core.riding",
    "pk": 70294,
    "fields": {
        "name_en": "Dorval--Lachine--LaSalle",
        "name_fr": "Dorval--Lachine--LaSalle",
        "province": "QC",
        "slug": "dorval-lachine-lasalle",
        "edid": 24024,
        "current": true
    }
},
{
    "model": "core.riding",
    "pk": 70295,
    "fields": {
        "name_en": "Esquimalt--Saanich--Sooke",
        "name_fr": "Esquimalt--Saanich--Sooke",
        "province": "BC",
        "slug": "esquimalt-saanich-sooke",
        "edid": 59026,
        "current": true
    }
},
{
    "model": "core.riding",
    "pk": 70296,
    "fields": {
        "name_en": "South Okanagan--West Kootenay",
        "name_fr": "Okanagan-Sud--Kootenay-Ouest",
        "province": "BC",
        "slug": "south-okanagan-west-kootenay",
        "edid": 59029,
        "current": true
    }
},
{
    "model": "core.riding",
    "pk": 70297,
    "fields": {
        "name_en": "Th\u00e9r\u00e8se-De Blainville",
        "name_fr": "Th\u00e9r\u00e8se-De Blainville",
        "province": "QC",
        "slug": "therese-de-blainville",
        "edid": 24013,
        "current": true
    }
},
{
    "model": "core.riding",
    "pk": 70298,
    "fields": {
        "name_en": "Notre-Dame-de-Gr\u00e2ce--Westmount",
        "name_fr": "Notre-Dame-de-Gr\u00e2ce--Westmount",
        "province": "QC",
        "slug": "notre-dame-de-grace-westmount",
        "edid": 24053,
        "current": true
    }
},
{
    "model": "core.riding",
    "pk": 70299,
    "fields": {
        "name_en": "Saint-Laurent",
        "name_fr": "Saint-Laurent",
        "province": "QC",
        "slug": "saint-laurent",
        "edid": 24068,
        "current": true
    }
},
{
    "model": "core.riding",
    "pk": 70300,
    "fields": {
        "name_en": "Vimy",
        "name_fr": "Vimy",
        "province": "QC",
        "slug": "vimy",
        "edid": 24078,
        "current": true
    }
},
{
    "model": "core.riding",
    "pk": 70301,
    "fields": {
        "name_en": "Saskatoon--Grasswood",
        "name_fr": "Saskatoon--Grasswood",
        "province": "SK",
        "slug": "saskatoon-grasswood",
        "edid": 47010,
        "current": true
    }
},
{
    "model": "core.riding",
    "pk": 70302,
    "fields": {
        "name_en": "Banff--Airdrie",
        "name_fr": "Banff--Airdrie",
        "province": "AB",
        "slug": "banff-airdrie",
        "edid": 48001,
        "current": true
    }
},
{
    "model": "core.riding",
    "pk": 70303,
    "fields": {
        "name_en": "Flamborough--Glanbrook",
        "name_fr": "Flamborough--Glanbrook",
        "province": "ON",
        "slug": "flamborough-glanbrook",
        "edid": 35030,
        "current": true
    }
},
{
    "model": "core.riding",
    "pk": 70304,
    "fields": {
        "name_en": "Nanaimo--Ladysmith",
        "name_fr": "Nanaimo--Ladysmith",
        "province": "BC",
        "slug": "nanaimo-ladysmith",
        "edid": 59018,
        "current": true
    }
},
{
    "model": "core.riding",
    "pk": 70305,
    "fields": {
        "name_en": "Bay of Quinte",
        "name_fr": "Baie de Quinte",
        "province": "ON",
        "slug": "bay-of-quinte",
        "edid": 35006,
        "current": true
    }
},
{
    "model": "core.riding",
    "pk": 70306,
    "fields": {
        "name_en": "Hastings--Lennox and Addington",
        "name_fr": "Hastings--Lennox and Addington",
        "province": "ON",
        "slug": "hastings-lennox-and-addington",
        "edid": 35039,
        "current": true
    }
},
{
    "model": "core.riding",
    "pk": 70307,
    "fields": {
        "name_en": "Leeds--Grenville--Thousand Islands and Rideau Lakes",
        "name_fr": "Leeds--Grenville--Thousand Islands et Rideau Lakes",
        "province": "ON",
        "slug": "leeds-grenville-thousand-islands-and-rideau-lakes",
        "edid": 35050,
        "current": true
    }
},
{
    "model": "core.riding",
    "pk": 70308,
    "fields": {
        "name_en": "Brantford--Brant",
        "name_fr": "Brantford--Brant",
        "province": "ON",
        "slug": "brantford-brant",
        "edid": 35013,
        "current": true
    }
},
{
    "model": "core.riding",
    "pk": 70309,
    "fields": {
        "name_en": "Edmonton Griesbach",
        "name_fr": "Edmonton Griesbach",
        "province": "AB",
        "slug": "edmonton-griesbach",
        "edid": 48015,
        "current": true
    }
},
{
    "model": "core.riding",
    "pk": 70310,
    "fields": {
        "name_en": "University--Rosedale",
        "name_fr": "University--Rosedale",
        "province": "ON",
        "slug": "university-rosedale",
        "edid": 35110,
        "current": true
    }
},
{
    "model": "core.riding",
    "pk": 70311,
    "fields": {
        "name_en": "Orl\u00e9ans",
        "name_fr": "Orl\u00e9ans",
        "province": "ON",
        "slug": "orleans",
        "edid": 35076,
        "current": true
    }
},
{
    "model": "core.riding",
    "pk": 70312,
    "fields": {
        "name_en": "Ajax",
        "name_fr": "Ajax",
        "province": "ON",
        "slug": "ajax",
        "edid": 35001,
        "current": true
    }
},
{
    "model": "core.riding",
    "pk": 70313,
    "fields": {
        "name_en": "Kitchener South--Hespeler",
        "name_fr": "Kitchener-Sud--Hespeler",
        "province": "ON",
        "slug": "kitchener-south-hespeler",
        "edid": 35047,
        "current": true
    }
},
{
    "model": "core.riding",
    "pk": 70314,
    "fields": {
        "name_en": "Aurora--Oak Ridges--Richmond Hill",
        "name_fr": "Aurora--Oak Ridges--Richmond Hill",
        "province": "ON",
        "slug": "aurora-oak-ridges-richmond-hill",
        "edid": 35003,
        "current": true
    }
},
{
    "model": "core.riding",
    "pk": 70315,
    "fields": {
        "name_en": "Charleswood--St. James--Assiniboia--Headingley",
        "name_fr": "Charleswood--St. James--Assiniboia--Headingley",
        "province": "MB",
        "slug": "charleswood-st-james-assiniboia-headingley",
        "edid": 46002,
        "current": true
    }
},
{
    "model": "core.riding",
    "pk": 70316,
    "fields": {
        "name_en": "Churchill--Keewatinook Aski",
        "name_fr": "Churchill--Keewatinook Aski",
        "province": "MB",
        "slug": "churchill-keewatinook-aski",
        "edid": 46003,
        "current": true
    }
},
{
    "model": "core.riding",
    "pk": 70317,
    "fields": {
        "name_en": "Saint Boniface--Saint Vital",
        "name_fr": "Saint-Boniface--Saint-Vital",
        "province": "MB",
        "slug": "saint-boniface-saint-vital",
        "edid": 46009,
        "current": true
    }
},
{
    "model": "core.riding",
    "pk": 70318,
    "fields": {
        "name_en": "Barrie--Innisfil",
        "name_fr": "Barrie--Innisfil",
        "province": "ON",
        "slug": "barrie-innisfil",
        "edid": 35004,
        "current": true
    }
},
{
    "model": "core.riding",
    "pk": 70319,
    "fields": {
        "name_en": "Barrie--Springwater--Oro-Medonte",
        "name_fr": "Barrie--Springwater--Oro-Medonte",
        "province": "ON",
        "slug": "barrie-springwater-oro-medonte",
        "edid": 35005,
        "current": true
    }
},
{
    "model": "core.riding",
    "pk": 70320,
    "fields": {
        "name_en": "Brampton East",
        "name_fr": "Brampton-Est",
        "province": "ON",
        "slug": "brampton-east",
        "edid": 35009,
        "current": true
    }
},
{
    "model": "core.riding",
    "pk": 70321,
    "fields": {
        "name_en": "Markham--Thornhill",
        "name_fr": "Markham--Thornhill",
        "province": "ON",
        "slug": "markham-thornhill",
        "edid": 35055,
        "current": true
    }
},
{
    "model": "core.riding",
    "pk": 70322,
    "fields": {
        "name_en": "Milton",
        "name_fr": "Milton",
        "province": "ON",
        "slug": "milton",
        "edid": 35057,
        "current": true
    }
},
{
    "model": "core.riding",
    "pk": 70323,
    "fields": {
        "name_en": "Fort McMurray--Cold Lake",
        "name_fr": "Fort McMurray--Cold Lake",
        "province": "AB",
        "slug": "fort-mcmurray-cold-lake",
        "edid": 48023,
        "current": true
    }
},
{
    "model": "core.riding",
    "pk": 70324,
    "fields": {
        "name_en": "Grande Prairie--Mackenzie",
        "name_fr": "Grande Prairie--Mackenzie",
        "province": "AB",
        "slug": "grande-prairie-mackenzie",
        "edid": 48024,
        "current": true
    }
},
{
    "model": "core.riding",
    "pk": 70325,
    "fields": {
        "name_en": "Prince George--Peace River--Northern Rockies",
        "name_fr": "Prince George--Peace River--Northern Rockies",
        "province": "BC",
        "slug": "prince-george-peace-river-northern-rockies",
        "edid": 59024,
        "current": true
    }
},
{
    "model": "core.riding",
    "pk": 70326,
    "fields": {
        "name_en": "Battle River--Crowfoot",
        "name_fr": "Battle River--Crowfoot",
        "province": "AB",
        "slug": "battle-river-crowfoot",
        "edid": 48002,
        "current": true
    }
},
{
    "model": "core.riding",
    "pk": 70327,
    "fields": {
        "name_en": "Brampton North",
        "name_fr": "Brampton-Nord",
        "province": "ON",
        "slug": "brampton-north",
        "edid": 35010,
        "current": true
    }
},
{
    "model": "core.riding",
    "pk": 70328,
    "fields": {
        "name_en": "Medicine Hat--Cardston--Warner",
        "name_fr": "Medicine Hat--Cardston--Warner",
        "province": "AB",
        "slug": "medicine-hat-cardston-warner",
        "edid": 48027,
        "current": true
    }
},
{
    "model": "core.riding",
    "pk": 70329,
    "fields": {
        "name_en": "Dauphin--Swan River--Neepawa",
        "name_fr": "Dauphin--Swan River--Neepawa",
        "province": "MB",
        "slug": "dauphin-swan-river-neepawa",
        "edid": 46004,
        "current": true
    }
},
{
    "model": "core.riding",
    "pk": 70330,
    "fields": {
        "name_en": "Mississauga--Lakeshore",
        "name_fr": "Mississauga--Lakeshore",
        "province": "ON",
        "slug": "mississauga-lakeshore",
        "edid": 35061,
        "current": true
    }
},
{
    "model": "core.riding",
    "pk": 70331,
    "fields": {
        "name_en": "Scarborough--Rouge Park",
        "name_fr": "Scarborough--Rouge Park",
        "province": "ON",
        "slug": "scarborough-rouge-park",
        "edid": 35097,
        "current": true
    }
},
{
    "model": "core.riding",
    "pk": 70332,
    "fields": {
        "name_en": "Spadina--Fort York",
        "name_fr": "Spadina--Fort York",
        "province": "ON",
        "slug": "spadina-fort-york",
        "edid": 35101,
        "current": true
    }
},
{
    "model": "core.riding",
    "pk": 70333,
    "fields": {
        "name_en": "Mississauga--Malton",
        "name_fr": "Mississauga--Malton",
        "province": "ON",
        "slug": "mississauga-malton",
        "edid": 35062,
        "current": true
    }
},
{
    "model": "core.riding",
    "pk": 70334,
    "fields": {
        "name_en": "King--Vaughan",
        "name_fr": "King--Vaughan",
        "province": "ON",
        "slug": "king-vaughan",
        "edid": 35043,
        "current": true
    }
},
{
    "model": "core.riding",
    "pk": 70335,
    "fields": {
        "name_en": "Peterborough--Kawartha",
        "name_fr": "Peterborough--Kawartha",
        "province": "ON",
        "slug": "peterborough-kawartha",
        "edid": 35084,
        "current": true
    }
},
{
    "model": "core.riding",
    "pk": 70336,
    "fields": {
        "name_en": "Pickering--Uxbridge",
        "name_fr": "Pickering--Uxbridge",
        "province": "ON",
        "slug": "pickering-uxbridge",
        "edid": 35085,
        "current": true
    }
},
{
    "model": "core.riding",
    "pk": 70337,
    "fields": {
        "name_en": "Niagara West",
        "name_fr": "Niagara-Ouest",
        "province": "ON",
        "slug": "niagara-west",
        "edid": 35068,
        "current": true
    }
},
{
    "model": "core.riding",
    "pk": 70338,
    "fields": {
        "name_en": "Humber River--Black Creek",
        "name_fr": "Humber River--Black Creek",
        "province": "ON",
        "slug": "humber-river-black-creek",
        "edid": 35121,
        "current": true
    }
},
{
    "model": "core.riding",
    "pk": 70339,
    "fields": {
        "name_en": "Sherwood Park--Fort Saskatchewan",
        "name_fr": "Sherwood Park--Fort Saskatchewan",
        "province": "AB",
        "slug": "sherwood-park-fort-saskatchewan",
        "edid": 48032,
        "current": true
    }
},
{
    "model": "core.riding",
    "pk": 70340,
    "fields": {
        "name_en": "Sturgeon River--Parkland",
        "name_fr": "Sturgeon River--Parkland",
        "province": "AB",
        "slug": "sturgeon-river-parkland",
        "edid": 48033,
        "current": true
    }
},
{
    "model": "core.riding",
    "pk": 70341,
    "fields": {
        "name_en": "Red Deer--Mountain View",
        "name_fr": "Red Deer--Mountain View",
        "province": "AB",
        "slug": "red-deer-mountain-view",
        "edid": 48029,
        "current": true
    }
},
{
    "model": "core.riding",
    "pk": 70342,
    "fields": {
        "name_en": "Longueuil--Saint-Hubert",
        "name_fr": "Longueuil--Saint-Hubert",
        "province": "QC",
        "slug": "longueuil-saint-hubert",
        "edid": 24043,
        "current": true
    }
},
{
    "model": "core.riding",
    "pk": 70343,
    "fields": {
        "name_en": "Mirabel",
        "name_fr": "Mirabel",
        "province": "QC",
        "slug": "mirabel",
        "edid": 24048,
        "current": true
    }
},
{
    "model": "core.riding",
    "pk": 70344,
    "fields": {
        "name_en": "Longueuil--Charles-LeMoyne",
        "name_fr": "Longueuil--Charles-Lemoyne",
        "province": "QC",
        "slug": "longueuil-charles-lemoyne",
        "edid": 24041,
        "current": true
    }
},
{
    "model": "core.riding",
    "pk": 70345,
    "fields": {
        "name_en": "LaSalle--\u00c9mard--Verdun",
        "name_fr": "LaSalle--\u00c9mard--Verdun",
        "province": "QC",
        "slug": "lasalle-emard-verdun",
        "edid": 24037,
        "current": true
    }
},
{
    "model": "core.riding",
    "pk": 70346,
    "fields": {
        "name_en": "Edmonton Manning",
        "name_fr": "Edmonton Manning",
        "province": "AB",
        "slug": "edmonton-manning",
        "edid": 48016,
        "current": true
    }
},
{
    "model": "core.riding",
    "pk": 70347,
    "fields": {
        "name_en": "Carleton",
        "name_fr": "Carleton",
        "province": "ON",
        "slug": "carleton",
        "edid": 35088,
        "current": true
    }
},
{
    "model": "core.riding",
    "pk": 70348,
    "fields": {
        "name_en": "Vancouver Granville",
        "name_fr": "Vancouver Granville",
        "province": "BC",
        "slug": "vancouver-granville",
        "edid": 59036,
        "current": true
    }
},
{
    "model": "core.riding",
    "pk": 70349,
    "fields": {
        "name_en": "Edmonton Mill Woods",
        "name_fr": "Edmonton Mill Woods",
        "province": "AB",
        "slug": "edmonton-mill-woods",
        "edid": 48017,
        "current": true
    }
},
{
    "model": "core.riding",
    "pk": 70350,
    "fields": {
        "name_en": "Edmonton Riverbend",
        "name_fr": "Edmonton Riverbend",
        "province": "AB",
        "slug": "edmonton-riverbend",
        "edid": 48018,
        "current": true
    }
},
{
    "model": "core.riding",
    "pk": 70351,
    "fields": {
        "name_en": "South Surrey--White Rock",
        "name_fr": "Surrey-Sud--White Rock",
        "province": "BC",
        "slug": "south-surrey-white-rock",
        "edid": 59030,
        "current": true
    }
},
{
    "model": "core.riding",
    "pk": 70352,
    "fields": {
        "name_en": "Regina--Lewvan",
        "name_fr": "Regina--Lewvan",
        "province": "SK",
        "slug": "regina-lewvan",
        "edid": 47007,
        "current": true
    }
},
{
    "model": "core.riding",
    "pk": 70353,
    "fields": {
        "name_en": "Saint John--Rothesay",
        "name_fr": "Saint John--Rothesay",
        "province": "NB",
        "slug": "saint-john-rothesay",
        "edid": 13009,
        "current": true
    }
},
{
    "model": "core.riding",
    "pk": 70354,
    "fields": {
        "name_en": "Miramichi--Grand Lake",
        "name_fr": "Miramichi--Grand Lake",
        "province": "NB",
        "slug": "miramichi-grand-lake",
        "edid": 13006,
        "current": true
    }
},
{
    "model": "core.riding",
    "pk": 70355,
    "fields": {
        "name_en": "Edmonton--Wetaskiwin",
        "name_fr": "Edmonton--Wetaskiwin",
        "province": "AB",
        "slug": "edmonton-wetaskiwin",
        "edid": 48021,
        "current": true
    }
},
{
    "model": "core.riding",
    "pk": 70356,
    "fields": {
        "name_en": "Peace River--Westlock",
        "name_fr": "Peace River--Westlock",
        "province": "AB",
        "slug": "peace-river-westlock",
        "edid": 48028,
        "current": true
    }
},
{
    "model": "core.riding",
    "pk": 70357,
    "fields": {
        "name_en": "Carlton Trail--Eagle Creek",
        "name_fr": "Sentier Carlton--Eagle Creek",
        "province": "SK",
        "slug": "carlton-trail-eagle-creek",
        "edid": 47004,
        "current": true
    }
},
{
    "model": "core.riding",
    "pk": 70358,
    "fields": {
        "name_en": "Moose Jaw--Lake Centre--Lanigan",
        "name_fr": "Moose Jaw--Lake Centre--Lanigan",
        "province": "SK",
        "slug": "moose-jaw-lake-centre-lanigan",
        "edid": 47005,
        "current": true
    }
},
{
    "model": "core.riding",
    "pk": 70359,
    "fields": {
        "name_en": "Bow River",
        "name_fr": "Bow River",
        "province": "AB",
        "slug": "bow-river",
        "edid": 48003,
        "current": true
    }
},
{
    "model": "core.riding",
    "pk": 70360,
    "fields": {
        "name_en": "Lanark--Frontenac--Kingston",
        "name_fr": "Lanark--Frontenac--Kingston",
        "province": "ON",
        "slug": "lanark-frontenac-kingston",
        "edid": 35049,
        "current": true
    }
},
{
    "model": "core.riding",
    "pk": 70361,
    "fields": {
        "name_en": "Burnaby South",
        "name_fr": "Burnaby-Sud",
        "province": "BC",
        "slug": "burnaby-south",
        "edid": 59003,
        "current": true
    }
},
{
    "model": "core.riding",
    "pk": 70362,
    "fields": {
        "name_en": "Central Okanagan--Similkameen--Nicola",
        "name_fr": "Central Okanagan--Similkameen--Nicola",
        "province": "BC",
        "slug": "central-okanagan-similkameen-nicola",
        "edid": 59005,
        "current": true
    }
},
{
    "model": "core.riding",
    "pk": 70363,
    "fields": {
        "name_en": "Chilliwack--Hope",
        "name_fr": "Chilliwack--Hope",
        "province": "BC",
        "slug": "chilliwack-hope",
        "edid": 59006,
        "current": true
    }
},
{
    "model": "core.riding",
    "pk": 70364,
    "fields": {
        "name_en": "Coquitlam--Port Coquitlam",
        "name_fr": "Coquitlam--Port Coquitlam",
        "province": "BC",
        "slug": "coquitlam-port-coquitlam",
        "edid": 59008,
        "current": true
    }
},
{
    "model": "core.riding",
    "pk": 70365,
    "fields": {
        "name_en": "Steveston--Richmond East",
        "name_fr": "Steveston--Richmond-Est",
        "province": "BC",
        "slug": "steveston-richmond-east",
        "edid": 59031,
        "current": true
    }
},
{
    "model": "core.riding",
    "pk": 70366,
    "fields": {
        "name_en": "Bonavista--Burin--Trinity",
        "name_fr": "Bonavista--Burin--Trinity",
        "province": "NL",
        "slug": "bonavista-burin-trinity",
        "edid": 10002,
        "current": true
    }
},
{
    "model": "core.riding",
    "pk": 70367,
    "fields": {
        "name_en": "Calgary Confederation",
        "name_fr": "Calgary Confederation",
        "province": "AB",
        "slug": "calgary-confederation",
        "edid": 48005,
        "current": true
    }
},
{
    "model": "core.riding",
    "pk": 70368,
    "fields": {
        "name_en": "Saskatoon--University",
        "name_fr": "Saskatoon--University",
        "province": "SK",
        "slug": "saskatoon-university",
        "edid": 47011,
        "current": true
    }
},
{
    "model": "core.riding",
    "pk": 70369,
    "fields": {
        "name_en": "Pierre-Boucher--Les Patriotes--Verch\u00e8res",
        "name_fr": "Pierre-Boucher--Les Patriotes--Verch\u00e8res",
        "province": "QC",
        "slug": "pierre-boucher-les-patriotes-vercheres",
        "edid": 24014,
        "current": true
    }
},
{
    "model": "core.riding",
    "pk": 70370,
    "fields": {
        "name_en": "Kanata--Carleton",
        "name_fr": "Kanata--Carleton",
        "province": "ON",
        "slug": "kanata-carleton",
        "edid": 35041,
        "current": true
    }
},
{
    "model": "core.riding",
    "pk": 70371,
    "fields": {
        "name_en": "Ahuntsic-Cartierville",
        "name_fr": "Ahuntsic-Cartierville",
        "province": "QC",
        "slug": "ahuntsic-cartierville",
        "edid": 24003,
        "current": true
    }
},
{
    "model": "core.riding",
    "pk": 70372,
    "fields": {
        "name_en": "Coast of Bays--Central--Notre Dame",
        "name_fr": "Coast of Bays--Central--Notre Dame",
        "province": "NL",
        "slug": "coast-of-bays-central-notre-dame",
        "edid": 10003,
        "current": true
    }
},
{
    "model": "core.riding",
    "pk": 70373,
    "fields": {
        "name_en": "Foothills",
        "name_fr": "Foothills",
        "province": "AB",
        "slug": "foothills",
        "edid": 48022,
        "current": true
    }
},
{
    "model": "core.riding",
    "pk": 70374,
    "fields": {
        "name_en": "Long Range Mountains",
        "name_fr": "Long Range Mountains",
        "province": "NL",
        "slug": "long-range-mountains",
        "edid": 10005,
        "current": true
    }
},
{
    "model": "core.riding",
    "pk": 70375,
    "fields": {
        "name_en": "Red Deer--Lacombe",
        "name_fr": "Red Deer--Lacombe",
        "province": "AB",
        "slug": "red-deer-lacombe",
        "edid": 48030,
        "current": true
    }
},
{
    "model": "core.riding",
    "pk": 70376,
    "fields": {
        "name_en": "St. Albert--Edmonton",
        "name_fr": "St. Albert--Edmonton",
        "province": "AB",
        "slug": "st-albert-edmonton",
        "edid": 48031,
        "current": true
    }
},
{
    "model": "core.riding",
    "pk": 70377,
    "fields": {
        "name_en": "Calgary Forest Lawn",
        "name_fr": "Calgary Forest Lawn",
        "province": "AB",
        "slug": "calgary-forest-lawn",
        "edid": 48006,
        "current": true
    }
},
{
    "model": "core.riding",
    "pk": 70378,
    "fields": {
        "name_en": "L\u00e9vis--Lotbini\u00e8re",
        "name_fr": "L\u00e9vis--Lotbini\u00e8re",
        "province": "QC",
        "slug": "levis-lotbiniere",
        "edid": 24042,
        "current": true
    }
},
{
    "model": "core.riding",
    "pk": 70379,
    "fields": {
        "name_en": "Ville-Marie--Le Sud-Ouest--\u00cele-des-Soeurs",
        "name_fr": "Ville-Marie--Le Sud-Ouest--\u00cele-des-S\u009curs",
        "province": "QC",
        "slug": "ville-marie-le-sud-ouest-ile-des-soeurs",
        "edid": 24077,
        "current": true
    }
},
{
    "model": "core.riding",
    "pk": 70380,
    "fields": {
        "name_en": "Toronto--St. Paul's",
        "name_fr": "Toronto--St. Paul's",
        "province": "ON",
        "slug": "toronto-st-paul-s",
        "edid": 35090,
        "current": true
    }
},
{
    "model": "core.riding",
    "pk": 70381,
    "fields": {
        "name_en": "Richmond Centre",
        "name_fr": "Richmond-Centre",
        "province": "BC",
        "slug": "richmond-centre",
        "edid": 59025,
        "current": true
    }
},
{
    "model": "core.riding",
    "pk": 70382,
    "fields": {
        "name_en": "Montarville",
        "name_fr": "Montarville",
        "province": "QC",
        "slug": "montarville",
        "edid": 24049,
        "current": true
    }
},
{
    "model": "core.riding",
    "pk": 70383,
    "fields": {
        "name_en": "Scarborough North",
        "name_fr": "Scarborough-Nord",
        "province": "ON",
        "slug": "scarborough-north",
        "edid": 35096,
        "current": true
    }
},
{
    "model": "core.riding",
    "pk": 70384,
    "fields": {
        "name_en": "Surrey Centre",
        "name_fr": "Surrey-Centre",
        "province": "BC",
        "slug": "surrey-centre",
        "edid": 59032,
        "current": true
    }
},
{
    "model": "core.riding",
    "pk": 70385,
    "fields": {
        "name_en": "Cloverdale--Langley City",
        "name_fr": "Cloverdale--Langley City",
        "province": "BC",
        "slug": "cloverdale-langley-city",
        "edid": 59007,
        "current": true
    }
},
{
    "model": "core.riding",
    "pk": 70386,
    "fields": {
        "name_en": "Calgary Midnapore",
        "name_fr": "Calgary Midnapore",
        "province": "AB",
        "slug": "calgary-midnapore",
        "edid": 48008,
        "current": true
    }
},
{
    "model": "core.riding",
    "pk": 70387,
    "fields": {
        "name_en": "Langley--Aldergrove",
        "name_fr": "Langley--Aldergrove",
        "province": "BC",
        "slug": "langley-aldergrove",
        "edid": 59016,
        "current": true
    }
},
{
    "model": "core.riding",
    "pk": 70388,
    "fields": {
        "name_en": "Cowichan--Malahat--Langford",
        "name_fr": "Cowichan--Malahat--Langford",
        "province": "BC",
        "slug": "cowichan-malahat-langford",
        "edid": 59010,
        "current": true
    }
},
{
    "model": "core.riding",
    "pk": 70389,
    "fields": {
        "name_en": "Argenteuil--La Petite-Nation",
        "name_fr": "Argenteuil--La Petite-Nation",
        "province": "QC",
        "slug": "argenteuil-la-petite-nation",
        "edid": 24005,
        "current": true
    }
},
{
    "model": "core.riding",
    "pk": 70390,
    "fields": {
        "name_en": "Avignon--La Mitis--Matane--Matap\u00e9dia",
        "name_fr": "Avignon--La Mitis--Matane--Matap\u00e9dia",
        "province": "QC",
        "slug": "avignon-la-mitis-matane-matapedia",
        "edid": 24006,
        "current": true
    }
},
{
    "model": "core.riding",
    "pk": 70391,
    "fields": {
        "name_en": "Oakville North--Burlington",
        "name_fr": "Oakville-Nord--Burlington",
        "province": "ON",
        "slug": "oakville-north-burlington",
        "edid": 35073,
        "current": true
    }
},
{
    "model": "core.riding",
    "pk": 70392,
    "fields": {
        "name_en": "Whitby",
        "name_fr": "Whitby",
        "province": "ON",
        "slug": "whitby",
        "edid": 35114,
        "current": true
    }
},
{
    "model": "core.riding",
    "pk": 70393,
    "fields": {
        "name_en": "Mississauga--Erin Mills",
        "name_fr": "Mississauga--Erin Mills",
        "province": "ON",
        "slug": "mississauga-erin-mills",
        "edid": 35060,
        "current": true
    }
}
]
